SiteNumber,ID,Enplanements(CY2019),RunwayLength,RunwayWidth,Region,DistrictOffice,Part139,NPIAS,Asset_Role,State,County,City,FacilityName,Ownership,Use,Owner,OwnerAddress,OwnerCSZ,Latitude,Longitude,ILS,Full_ILS,ALS,Elevation,ATCT,BasedJets,Based_Aircraft_Total _FROM_5010,Total_Operations_FROM_5010
25600.*A,VJI,0,4471,75,AEA,DCA,N,General Aviation ,2 Regional,VA,WASHINGTON,ABINGDON,VIRGINIA HIGHLANDS,PU,PU,VA HIGHLANDS ARPT AUTHORITY,PO BOX 631,"ABINGDON, VA 24212",36.687103,-82.033327, LOC/DME,No, ODALS,2087,N,7,50,15137
25600.02*A,32VA,0,1890,75,AEA,DCA,N,NON-NPIAS  ,NON-NPIAS,VA,WASHINGTON,ABINGDON,OLD SOUTH AERODROME,PR,PR,JOHN R. WHITE,24648 OLD SOUTH WAY,"ABINGDON, VA 24211",36.677778,-81.928722, ,No,None,1970,N,0,1,0
25610.*A,00VA,0,1300,100,AEA,DCA,N,NON-NPIAS  ,NON-NPIAS,VA,HALIFAX,ALTON,VAUGHAN,PR,PR,RONNIE D. & JEREMY L. VAUGHAN,1226 BLANE ROAD,"ALTON, VA 24520",36.576000,-78.999167, ,No,None,551,N,0,1,0
25617.2*A,2VA3,0,3200,100,AEA,DCA,N,NON-NPIAS  ,NON-NPIAS,VA,CHESAPEAKE,AMELIA COURT HOUSE,MERLIN AERODROME,PR,PR,MERLIN AIRPORT LLC,2607 ST REGIS DRIVE,"N CHESTERFIELD, VA 23236",37.316828,-77.866550, ,No,None,270,N,0,5,0
25618.*A,93VA,0,1400,75,AEA,DCA,N,NON-NPIAS  ,NON-NPIAS,VA,AMHERST,AMHERST,TIMBERDOODLE,PR,PR,C T HOLT,RT 2 BOX 353,"AMHERST, VA 24521",37.536253,-79.023356, ,No,None,810,N,0,1,0
25618.01*A,VG06,0,3000,100,AEA,DCA,N,NON-NPIAS  ,NON-NPIAS,VA,AMHERST,AMHERST,FULCHER FAMILY FARMS,PR,PR,THOMAS M FULCHER,3300 GOLSDSBORO CT,"FALLS CHURCH, VA 22042",37.725136,-79.083081, ,No,None,980,N,0,0,0
25618.02*A,8VG4,0,1700,50,AEA,DCA,N,NON-NPIAS  ,NON-NPIAS,VA,AMHERST,AMHERST,BUFFALO RIDGE,PR,PR,BUFFALO RIDGE AIRPORTS,202 SALISBURY CIR,"LYNCHBURG, VA 24502",37.605306,-79.016361, ,No,None,660,N,0,4,0
25622.*A,10VA,0,1800,20,AEA,DCA,N,NON-NPIAS  ,NON-NPIAS,VA,APPOMATTOX,APPOMATTOX,NASHS,PR,PR,JEANNE N AMOS & GRAY S NASH,174A CLOVER LANE,"APPOMATTOX, VA 24522",37.386256,-78.813069, ,No,None,785,N,0,0,0
25622.1*A,94VA,0,2200,50,AEA,DCA,N,NON-NPIAS  ,NON-NPIAS,VA,APPOMATTOX,APPOMATTOX,HIGHVIEW FARMS,PR,PR,WINFRED D NASH,RT 1 BOX 331,"APPOMATTOX, VA 24522",37.263056,-78.849444, ,No,None,765,N,0,1,0
25624.7*A,4VA5,0,2000,100,AEA,DCA,N,NON-NPIAS  ,NON-NPIAS,VA,NELSON,ARRINGTON,STARR,PR,PR,"LELAND E STARR, TRUST",113 BROOK ROAD,"YORKTOWN, VA 23692",37.659586,-78.922244, ,No,None,640,N,0,1,0
25626.12*A,VG24,0,2000,100,AEA,DCA,N,NON-NPIAS  ,NON-NPIAS,VA,HANOVER,ASHLAND,MAYERS,PR,PR,GREENDALE RAILING CO.,2031 WESTWOOD AVE,"RICHMOND, VA 23230-4114",37.781809,-77.493873, ,No,None,215,N,0,0,0
25626.13*A,4VG2,0,1600,40,AEA,DCA,N,NON-NPIAS  ,NON-NPIAS,VA,HANOVER,ASHLAND,COOL WATER,PR,PR,FRANK D. HARGROVE,13033 OLD RIDGE ROAD,"BEAVER DAM, VA 23015",37.858056,-77.547222, ,No,None,250,N,0,1,0
25627.*A,4VA6,0,2450,60,AEA,DCA,N,NON-NPIAS  ,NON-NPIAS,VA,ACCOMACK,ATLANTIC,TAYLOR,PR,PR,EMMETT TAYLOR,33230 TAYLOR FARM RD,"TEMPERANCEVILLE, VA 23442",37.880680,-75.506037, ,No,None,48,N,0,2,0
25628.*A,25VA,0,2800,100,AEA,DCA,N,NON-NPIAS  ,NON-NPIAS,VA,KING AND QUEEN,AYLETT,TODDSBURY FARM,PR,PR,WILLIAM F. GRIGG,8627 CHIPPENHAM RD,"RICHMOND, VA 23235-1909",37.821583,-77.112639, ,No,None,50,N,0,0,0
25631.*A,VG18,0,2240,50,AEA,DCA,N,NON-NPIAS  ,NON-NPIAS,VA,SHENANDOAH,BASYE,SKY BRYCE,PR,PR,BRYCE RESORT,PO BOX 3,"BASYE, VA 22810",38.815403,-78.770757, ,No,None,1267,N,0,2,3200
25632.1*A,91VA,0,1850,70,AEA,DCA,N,NON-NPIAS  ,NON-NPIAS,VA,BEDFORD,BEDFORD,MILLER,PR,PR,DAVID EUGENE MILLER,2760 BELLS MILL RD,"GOODE, VA 24556",37.327642,-79.404751, ,No,None,760,N,0,2,0
25632.13*A,VG25,0,2800,100,AEA,DCA,N,NON-NPIAS  ,NON-NPIAS,VA,BEDFORD,BEDFORD,ROBINSON,PR,PR,JERRY W. MULLINS,PO BOX 908,"SALEM, VA 24153",37.348473,-79.571978, ,No,None,850,N,0,0,0
25632.17*A,0VA1,0,2000,50,AEA,DCA,N,NON-NPIAS  ,NON-NPIAS,VA,BEDFORD,BEDFORD,JOHNSON FOX FLD,PR,PR,BARRETT JOHNSON,1330 HARVEYS CREEK RD,"MONETA, VA 24121",37.233476,-79.585309, ,No,None,900,N,0,0,0
25632.18*A,20VG,0,2100,60,AEA,DCA,N,NON-NPIAS  ,NON-NPIAS,VA,BEDFORD,BEDFORD,HAWK RIDGE,PR,PR,DONALD W. GOODMAN,1702 EGYPT RD,"GOODE, VA 24556",37.288683,-79.446917, ,No,None,760,N,0,3,0
25635.*A,61VA,0,3000,150,AEA,DCA,N,NON-NPIAS  ,NON-NPIAS,VA,CLARKE,BERRYVILLE,HIGH VIEW FARM,PR,PR,I. K. MOORHEAD ESTATE,"ROUTE 1, BOX 2570","BERRYVILLE, VA 22611",39.236981,-78.011179, ,No,None,595,N,0,1,0
25635.01*A,01VA,0,1500,60,AEA,DCA,N,NON-NPIAS  ,NON-NPIAS,VA,CLARKE,BERRYVILLE,PICKLES,PR,PR,RICHARD D. & MARIE T. NEWMAN,6211 WINNEBAGO ROAD,"BETHESDA, MD 20816",39.125000,-77.925000, ,No,None,500,N,0,1,0
25644.*A,BCB,0,5501,100,AEA,DCA,N,General Aviation ,2 Regional,VA,MONTGOMERY,BLACKSBURG,VIRGINIA TECH/MONTGOMERY EXEC,PU,PU,VTMRAA,1601 RESEARCH CENTER DRIVE,"BLACKSBURG, VA 24060",37.209387,-80.412090,LOC/DME ,No,ODALS ,2119,N,2,42,21900
25644.01*A,VA10,0,1930,100,AEA,DCA,N,NON-NPIAS  ,NON-NPIAS,VA,MONTGOMERY,BLACKSBURG,CATAWBA VALLEY,PR,PR,JAMES MC PHERSON,3046 CATAWBA RD,"BLACKSBURG, VA 27060",37.280131,-80.301436, ,No,None,1720,N,0,1,0
25647.*A,BKT,0,5333,150,AEA,DCA,N,NON-NPIAS  ,NON-NPIAS,VA,NOTTOWAY,BLACKSTONE,ALLEN C PERKINSON BLACKSTONE AAF,MILITARY,PU,TOWN OF BLACKSTONE & US ARMY,100 W ELM ST,"BLACKSTONE, VA 23824",37.074767,-77.956598, ,No,None,437,Y,0,9,1200
25647.28*A,VG56,0,2000,200,AEA,DCA,N,NON-NPIAS  ,NON-NPIAS,VA,ACCOMACK,BLOXOM,MIDWAY,PR,PR,WAYNE JOHNSON & BOBBY FLOWERS,P. O. BOX 90,"BLOXOM, VA 23308",37.808333,-75.602778, ,No,None,50,N,0,3,0
25648.*A,20VA,0,2600,150,AEA,DCA,N,NON-NPIAS  ,NON-NPIAS,VA,CAROLINE,BOWLING GREEN,WOODFORD AIRPARK,PR,PR,JOHN L CATON JR & SR,13247 BULL CHURCH RD.,"WOODFORD, VA 22580",38.082356,-77.488316, ,No,None,245,N,0,7,0
25648.47*A,23VG,0,1500,60,AEA,DCA,N,NON-NPIAS  ,NON-NPIAS,VA,MECKLENBURG,BOYDTON,MURDOCK'S HOLLY BU,PR,PR,JOHN A. MURDOCK,"PO BOX 58, 6533 WILKENSON RD","BOYDTON, VA 23917",36.709722,-78.428056, ,No,None,465,N,0,2,0
25648.48*A,3VG4,0,2600,60,AEA,DCA,N,NON-NPIAS  ,NON-NPIAS,VA,MECKLENBURG,BOYDTON,MURDOCKS FLYING V,PR,PR,JOHN A. MURDOCK,"P.O. BOX 58, 6533 WILKINSON RD","BOYDTON, VA 23917",36.734008,-78.408189, ,No,None,410,N,0,0,0
25648.5*A,VG28,0,2300,60,AEA,DCA,N,NON-NPIAS  ,NON-NPIAS,VA,SOUTHAMPTON,BOYKINS,MANN,PR,PR,,,,36.549041,-77.191356, ,No,None,35,N,0,0,0
25649.*A,VBW,0,2745,60,AEA,DCA,N,NON-NPIAS  ,NON-NPIAS,VA,ROCKINGHAM,BRIDGEWATER,BRIDGEWATER AIR PARK,PR,PU,ROCKINGHAM AVIATION CORP,PO BOX 7,"BRIDGEWATER, VA 22812",38.366738,-78.960334, ,No,None,1165,N,3,100,16621
25658.13*A,0V4,0,3798,60,AEA,DCA,N,General Aviation ,5 Unclassified,VA,CAMPBELL,BROOKNEAL,BROOKNEAL/CAMPBELL COUNTY,PU,PU,BROOKNEAL/CAMPBELL CO. AUTH,"PO BOX 100, 133 RUNWAY ROAD","RUSTBURG, VA 24528",37.141722,-79.016389, ,No,None,596,N,0,2,811
25659.1*A,8VA4,0,2709,100,AEA,DCA,N,NON-NPIAS  ,NON-NPIAS,VA,BUCKINGHAM,BUCKINHAM,LOTUS INTL,PR,PR,YOGAVILLE,108 YOGAVILLE WAY,"BUCKINGHAM, VA 23921",37.672921,-78.703348, ,No,None,340,N,0,0,0
25659.11*A,23VA,0,1800,25,AEA,DCA,N,NON-NPIAS  ,NON-NPIAS,VA,BUCKINGHAM,BUCKINGHAM,WHEATLAND,PR,PR,DONALD L. MOSELEY,450 WILLOW LAKE ROAD,"BUCKINGHAM, VA 23921",37.557089,-78.620008, ,No,None,490,N,0,1,0
25659.19*A,8VA1,0,4600,75,AEA,DCA,N,NON-NPIAS  ,NON-NPIAS,VA,BUCKINGHAM,BUCKINGHAM,SLATE RIVER AIRPARK,PR,PR,GLADE KNIGHT,644 SLATE RIVER RANCH LN,"BUCKINGHAM, VA 23921",37.544436,-78.587078, ,No,None,470,N,0,0,0
25659.4*A,7W4,0,2558,50,AEA,DCA,N,NON-NPIAS  ,NON-NPIAS,VA,LOUISA,BUMPASS,LAKE ANNA,PR,PU,"MILE HIGH CHARTERS, LLC",10267 MATTHEWS GROVE LN.,"MECHANICSVILLE, VA 23116",37.965819,-77.745903, ,No,None,351,N,0,3,906
25659.7*A,3VG3,0,2200,75,AEA,DCA,N,NON-NPIAS  ,NON-NPIAS,VA,NORTHUMBERLAND,BURGESS,SERENITY FARM,PR,PR,SERENITY FARM LLC,PO BOX 861427,"WARRENTON, VA 20187",37.936108,-76.348608, ,No,None,10,N,0,1,0
25659.9*A,70VA,0,1800,50,AEA,DCA,N,NON-NPIAS  ,NON-NPIAS,VA,FRANKLIN,BURNT CHIMNEY,BURNT CHIMNEY,PR,PR,MARLIN J. BOWMAN,6442 1/2 BEAMSVILLE-WEBSTER RD,"VERSAILLES, OH 45380",37.075418,-79.827255, ,No,None,1034,N,0,2,0
25660.*A,46VA,0,1450,50,AEA,DCA,N,NON-NPIAS  ,NON-NPIAS,VA,GOOCHLAND,COLUMBIA,BYRD CREEK,PR,PR,JAMSHID SAMADI,4581 PINK DOGWOOD ROAD,"COLUMBIA, VA 23038",37.817467,-78.048547, ,No,None,306,N,0,1,1
25660.3*A,8VA2,0,2300,75,AEA,DCA,N,NON-NPIAS  ,NON-NPIAS,VA,NORTHUMBERLAND,CALLAO,SHIVOK,PR,PR,RONALD J SHIVOK,"P O BOX 84, ROUTE 621","CALLAO, VA 22435",38.009019,-76.563011, ,No,None,22,N,0,1,0
25660.5*A,58VA,0,2490,50,AEA,DCA,N,NON-NPIAS  ,NON-NPIAS,VA,FAUQUIER,CALVERTON,WALNUT HILL,PR,PR,WALNUT HILL FARM LLC,10593 SHENANDOAH PATH,"CATLETT, VA 20119",38.595122,-77.646101, ,No,None,285,N,0,0,0
25661.01*A,VG39,0,2000,60,AEA,DCA,N,NON-NPIAS  ,NON-NPIAS,VA,NORTHAMPTON,CAPE CHARLES,EARTH,PR,PR,PATRICK HAND,2242 ARLINGTON CHASE,"CAPE CHARLES, VA 23310",37.220833,-76.007500, ,No,None,9,N,0,1,0
25661.21*A,VG30,0,3000,60,AEA,DCA,N,NON-NPIAS  ,NON-NPIAS,VA,NORTHAMPTON,CAPE CHARLES,SCOTT FARM STRIP,PR,PR,PAGE NOTTINGHAM SCOTT,25492 LANKFORD HWY,"CAPE CHARLES, VA 23310",37.227084,-75.976876, ,No,None,33,N,0,3,0
25661.212*A,VG33,0,3000,50,AEA,DCA,N,NON-NPIAS  ,NON-NPIAS,VA,NORTHAMPTON,CAPE CHARLES,BULL FARM,PR,PR,J D BULL,P.O. BOX 124,"TOWNSEND, VA 23443",37.154586,-75.956874, ,No,None,18,N,0,0,0
25661.22*A,VG09,0,5000,80,AEA,DCA,N,NON-NPIAS  ,NON-NPIAS,VA,NORTHAMPTON,CAPE CHARLES,STARBASE,PR,PR,BAYVIEW CORP,2464 PLANTATION CREEK LANE,"CAPE CHARLES, VA 23310",37.227778,-75.983333, ,No,None,20,N,0,0,0
25662.7*A,VA66,0,1000,75,AEA,DCA,N,NON-NPIAS  ,NON-NPIAS,VA,FAUQUIER,CATLETT,BREEDEN,PR,PR,ROBT & KRYSTAL BREEDEN,PO BOX 212,"CATLETT, VA 22019",38.607633,-77.569428, ,No,None,210,N,0,1,0
25663.*A,VA16,0,2100,100,AEA,DCA,N,NON-NPIAS  ,NON-NPIAS,VA,FAIRFAX,CENTREVILLE,CENTREVILLE,PR,PR,DAVID L. HUNTER,2911 HUNTER MILL RD,"OAKTON, VA 22124",38.879279,-77.484434, ,No,None,300,N,0,0,0
25665.3*A,VA18,0,3000,100,AEA,DCA,N,NON-NPIAS  ,NON-NPIAS,VA,ALBEMARLE,CHARLOTTESVILLE,BUNDORAN,PR,PR,FRED W. SCOTT JR.,5440 BALLYSHANNON LANE,"NORTH GARDEN, VA 22959",37.968473,-78.682240, ,No,None,840,N,0,1,0
25665.4*A,VA19,0,2200,100,AEA,DCA,N,NON-NPIAS  ,NON-NPIAS,VA,ALBEMARLE,CHARLOTTESVILLE,SNOW HILL,PR,PR,ROBERT L. SNOW,3802 SNOWHILL LANE,"TROY, VA 22974",37.954029,-78.369174, ,No,None,268,N,0,0,0
25666.*A,CHO,387922,6801,150,AEA,DCA,Y,Primary Non-Hub,P-4 N,VA,ALBEMARLE,CHARLOTTESVILLE,CHARLOTTESVILLE-ALBEMARLE,PU,PU,CHRLTSVL-ALBMRL ARPT AUTH,"100 BOWEN LOOP, SUITE 200","CHARLOTTESVILLE, VA 22911",38.139643,-78.452344,ILS/DME ,Yes,MALSR ,640,Y,0,0,0
25667.17*A,VA05,0,2400,60,AEA,DCA,N,NON-NPIAS  ,NON-NPIAS,VA,CHARLES CITY,CHARLES CITY,PILOTS GROVE,PR,PR,KEITH & KATHRYN W. BRITTLE,11301 KIMAGES ROAD,"CHARLES CITY, VA 23030",37.338656,-77.197806, ,No,None,34,N,0,1,0
25668.*A,CXE,0,3400,50,AEA,DCA,N,NON-NPIAS  ,NON-NPIAS,VA,MECKLENBURG,CHASE CITY,CHASE CITY MUNI,PU,PU,TOWN OF CHASE CITY,319 N MAIN ST,"CHASE CITY, VA 23924",36.788336,-78.501554, ,No,None,503,N,0,6,2590
25668.01*A,VA25,0,1500,80,AEA,DCA,N,NON-NPIAS  ,NON-NPIAS,VA,MECKLENBURG,CHASE CITY,TWIN TOWERS,PR,PR,RUTH M. ASHWORTH,6075 OLD COX RD,"CHASE CITY, VA 23924",36.764308,-78.360553, ,No,None,470,N,0,1,0
25668.02*A,1VA8,0,3000,60,AEA,DCA,N,NON-NPIAS  ,NON-NPIAS,VA,LUNENBURG,CHASE CITY,HAZELSWART,PR,PR,RALPH W HAZELSWART,274 AIRSTRIP ROAD,"CHASE CITY, VA 23924",36.861944,-78.411111, ,No,None,485,N,0,1,0
25671.*A,21VA,0,1800,60,AEA,DCA,N,NON-NPIAS  ,NON-NPIAS,VA,NORTHAMPTON,CHERITON,EAGLES NEST,PR,PR,PETER M LEONTIEFF SR,23041 PARSONS CIR,"CAPE CHARLES, VA 23310",37.303194,-75.934931, ,No,None,40,N,0,0,0
25671.1*A,24VA,0,2000,75,AEA,DCA,N,NON-NPIAS  ,NON-NPIAS,VA,NORTHAMPTON,CHERITON,CHERRYSTONE,PR,PR,GRANVILLE F. HOGG,PO BOX 117,"CHERITON, VA 23316",37.288193,-75.999655, ,No,None,14,N,0,0,6
25677.11*A,VA11,0,1700,80,AEA,DCA,N,NON-NPIAS  ,NON-NPIAS,VA,SMYTH,CHILHOWIE,WHITE OAK STAND,PR,PR,CHILHOWIE LAND CO,PO BOX 730,"CHILHOWIE, VA 24319",36.807893,-81.701230, ,No,None,2100,N,0,1,0
25687.1*A,VG34,0,2375,75,AEA,DCA,N,NON-NPIAS  ,NON-NPIAS,VA,MECKLENBURG,CLARKSVILLE,MERIFIELD,PR,PR,MERIFIELD ACRES LANDOWNERS,MERIWETHER DR.,"CLARKSVILLE, VA 23927",36.584586,-78.500832, ,No,None,355,N,0,0,0
25687.2*A,W63,0,4488,50,AEA,DCA,N,NON-NPIAS  ,NON-NPIAS,VA,MECKLENBURG,CLARKSVILLE,LAKE COUNTRY RGNL,PU,PU,LAKE COUNTRY REG AIRPORT COMMISSION,"LAKE COUNTRY REGIONAL AIRPORT, POST OFFICE BOX 1047","CLARKSVILLE, VA 23927",36.595750,-78.560139, ,No,None,419,N,0,5,5530
25688.5*A,12VA,0,2150,50,AEA,DCA,N,NON-NPIAS  ,NON-NPIAS,VA,ALLEGHANY,CLIFTON FORGE,HOP-ALONG,PR,PR,WM E BOYD,5152 MC KINNEY HOLLOW RD,"EAGLE ROCK, VA 42085",37.788056,-79.767778, ,No,None,1060,N,0,0,0
25688.9*A,VA75,0,1200,50,AEA,DCA,N,NON-NPIAS  ,NON-NPIAS,VA,DICKENSON,CLINTWOOD,CANEY RIDGE,PR,PR,CAROLYN ROSE,7513 DC CANEY RIDGE RD,"COEBURN, VA 24230",37.065361,-82.444167, ,No,None,2401,N,0,1,0
25690.*A,07VA,0,1600,50,AEA,DCA,N,NON-NPIAS  ,NON-NPIAS,VA,HALIFAX,CLOVER,ALPHA HOTEL,PR,PR,JAMES G. SMILEY,2040 MILL RD,"CLOVER, VA 24534",36.819584,-78.783062, ,No,None,350,N,0,1,0
25698.5*A,VA23,0,2900,60,AEA,DCA,N,NON-NPIAS  ,NON-NPIAS,VA,WESTMORELAND,COLES POINT,SANFORD FLD,PR,PR,"GEORGE W. SANFORD, JR.",BOX 534,"MONTROSS, VA 22520",38.119018,-76.613569, ,No,None,15,N,0,2,0
25698.84*A,VA93,0,2100,100,AEA,DCA,N,NON-NPIAS  ,NON-NPIAS,VA,SHENANDOAH,COLUMBIA FURNACE,AYERS,PR,PR,JOHN T. AYERS,214 MILLERTOWN RD,"EDINBURG, VA 22824",38.905111,-78.654738, ,No,None,1340,N,0,1,0
25699.*A,VA24,0,1600,30,AEA,DCA,N,NON-NPIAS  ,NON-NPIAS,VA,APPOMATTOX,CONCORD,SKOVHUS,PR,PR,RHONDA D. POINTON,469 VINEYARD ROAD,"CONCORD, VA 24538",37.414310,-78.964186, ,No,None,712,N,0,0,0
25710.1*A,W81,0,3300,60,AEA,DCA,N,NON-NPIAS  ,NON-NPIAS,VA,NOTTOWAY,CREWE,CREWE MUNI,PU,PU,TOWN OF CREWE,125 E CAROLINA AVE,"CREWE, VA 23930",37.181012,-78.098475, ,No,None,422,N,0,13,4184
25711.91*A,VA27,0,2160,70,AEA,DCA,N,NON-NPIAS  ,NON-NPIAS,VA,PATRICK,CRITZ,MOOREFIELD'S AIRSTRIP,PR,PR,"JAMES B. WILLIAMS, JR",5213 MOOREFIELD STORE RD.,"SPENCER, VA 24165-3456",36.559860,-80.137826, ,No,None,1110,N,0,1,0
25712.21*A,87VA,0,1000,50,AEA,DCA,N,NON-NPIAS  ,NON-NPIAS,VA,ALBEMARLE,CROZET,COTTONWOOD FARM,PR,PR,COTTONWOOD FARM,P.O. BOX 5525,"CHARLOTTESVILLE, VA 22905",38.081111,-78.695556, ,No,None,690,N,0,0,0
25712.8*A,VA28,0,2250,60,AEA,DCA,N,NON-NPIAS  ,NON-NPIAS,VA,CHARLOTTE,CULLEN,LAYNE FARM AIRSTRIP,PR,PR,EDWARD R. LAYNE,615 TARO ROAD,"CULLEN, VA 23934",37.121259,-78.643613, ,No,None,560,N,0,2,0
25713.*A,CJR,0,5000,100,AEA,DCA,N,General Aviation ,2 Regional,VA,CULPEPER,CULPEPER,CULPEPER RGNL,PU,PU,COUNTY OF CULPEPER,302 N MAIN ST,"CULPEPER, VA 22701",38.525472,-77.859639,LOCALIZER ,No,None,315,N,1,133,76755
25713.2*A,VA30,0,2300,100,AEA,DCA,N,NON-NPIAS  ,NON-NPIAS,VA,CULPEPER,CULPEPER,BERRYVALE,PR,PR,BERRYVALE PROP OWNERS ASSN,16131 BERRYVALE LN,"CULPEPER, VA 22701-9774",38.526791,-77.956385, ,No,None,470,N,0,8,0
25713.22*A,88VA,0,2200,50,AEA,DCA,N,NON-NPIAS  ,NON-NPIAS,VA,CULPEPER,CULPEPER,BELMONT FARM,PR,PR,CHARLES A MILLER,13490 CEDAR RUN RD,"CULPEPER, VA 22701",38.374167,-77.991944, ,No,None,305,N,0,1,0
25713.3*A,02VA,0,3000,80,AEA,DCA,N,NON-NPIAS  ,NON-NPIAS,VA,CULPEPER,CULPEPER,THE GREENHOUSE,PR,PR,JOE VAN WINGERDEN,21513 GERMANNA HWY,"STEVENSBURG, VA 22741",38.435683,-77.857216, ,No,None,320,N,0,1,0
25716.*A,NDY,0,4191,150,AEA,DCA,N,NON-NPIAS  ,NON-NPIAS,VA,YORK,DAHLGREN,DAHLGREN NAVAL SURFACE WARFARE CENTER,MILITARY,PR,US NAVY,OCEANOGRAPHIC OFC - CODE 3142,"WASHINGTON, DC 20373",38.332878,-77.037011, ,No,ODALS ,18,N,0,0,0
25725.*A,DAN,0,5900,100,AEA,DCA,N,General Aviation ,2 Regional,VA,PITTSYLVANIA,DANVILLE,DANVILLE RGNL,PU,PU,CITY OF DANVILLE,PO BOX 3300,"DANVILLE, VA 24543",36.572472,-79.336250,ILS ,Yes,MALSR ,571,N,1,38,19120
25725.1*A,95VA,0,1200,75,AEA,DCA,N,NON-NPIAS  ,NON-NPIAS,VA,PITTSYLVANIA,DANVILLE,BUCK HOLLAR,PR,PR,H DAN DAVIS,3204 OLD RICHMOND RD,"DANVILLE, VA 24540",36.623194,-79.355855, ,No,None,450,N,0,1,0
25735.*A,PSK,0,6201,150,AEA,DCA,N,General Aviation ,2 Regional,VA,PULASKI,DUBLIN,NEW RIVER VALLEY,PU,PU,NEW RIVER VALLEY ARPT CMSN,5391 C. V. JACKSON ROAD,"DUBLIN, VA 24084",37.137345,-80.678482,ILS ,Yes,MALSR ,2104,N,1,34,6581
25738.*A,44VA,0,2800,100,AEA,DCA,N,NON-NPIAS  ,NON-NPIAS,VA,BOTETOURT,EAGLE ROCK,BIG HILL,PR,PR,CLARE D. WEIDMAN,18645 BOTETOURT RD,"EAGLE ROCK, VA 24085",37.731240,-79.811159, ,No,None,1620,N,0,2,0
25738.01*A,79VG,0,2250,32,AEA,DCA,N,NON-NPIAS  ,NON-NPIAS,VA,BOTETOURT,EAGLE ROCK,PERKEY,PR,PR,GILBERT J. PERKEY,779 MISTY HOLLOW RD,"EAGLE ROCK, VA 24085",37.665278,-79.812417, ,No,None,1200,N,0,3,0
25739.*A,VA32,0,2100,75,AEA,DCA,N,NON-NPIAS  ,NON-NPIAS,VA,SHENANDOAH,EDINBURG,LONGS,PR,PR,JIM A LONG,41 EDINBURG RESERVOIR RD,"EDINBURG, VA 22824",38.804280,-78.571957, ,No,None,870,N,0,1,0
25739.01*A,89VA,0,1500,40,AEA,DCA,N,NON-NPIAS  ,NON-NPIAS,VA,SHENANDOAH,EDINBURG,HIDDEN RIVER,PR,PR,STEVAN H WHITE,RT 4 BOX 290,"EDINBURG, VA 22824",38.522346,-78.524176, ,No,None,780,N,0,1,0
25739.05*A,2VA1,0,2400,60,AEA,DCA,N,NON-NPIAS  ,NON-NPIAS,VA,NORTHUMBERLAND,EDWARDSVILLE,JETT AIRPARK,PR,PR,JUDITH J. JETT,PO BOX 128,"BURGESS, VA 22432",37.895964,-76.355225, ,No,None,90,N,0,1,0
25744.*A,EMV,0,5010,100,AEA,DCA,N,General Aviation ,4 Basic,VA,GREENSVILLE,EMPORIA,EMPORIA-GREENSVILLE RGNL,PU,PU,EMPORIA-GREENSVILLE ARPT COMM,139 AIRPORT DR,"EMPORIA, VA 23847",36.686861,-77.482750, LOC/DME,No,None,126,N,0,12,1434
25755.*A,05VA,0,2000,40,AEA,DCA,N,NON-NPIAS  ,NON-NPIAS,VA,PRINCE EDWARD,FARMVILLE,PROVIDENCE,PR,PR,DAVID B. WOOD,PO BOX 472,"FARMVILLE, VA 23901",37.224167,-78.418611, ,No,None,445,N,0,1,0
25755.1*A,FVX,0,4400,75,AEA,DCA,N,General Aviation ,4 Basic,VA,CUMBERLAND,FARMVILLE,FARMVILLE RGNL,PU,PU,TOWN OF FARMVILLE,P.O. DRAWER 368,"FARMVILLE, VA 23901",37.357528,-78.437806, ,No,None,415,N,1,12,14123
25755.12*A,14VG,0,3000,48,AEA,DCA,N,NON-NPIAS  ,NON-NPIAS,VA,PRINCE EDWARD,FARMVILLE,ABILENE,PR,PR,GERALD & SUE WATTS,1425 MT HARMONY RD,"KEYSVILLE, VA 23947",37.168056,-78.500833, ,No,None,590,N,0,2,0
25755.2*A,VA34,0,1400,50,AEA,DCA,N,NON-NPIAS  ,NON-NPIAS,VA,PRINCE EDWARD,FARMVILLE,BIG BUFFALO AIRSTRIP,PR,PR,"EUGENE J. WARD, JR.",931 RESTFUL ACRES LANE,"FARMVILLE, VA 23901",37.283485,-78.449718, ,No,None,510,N,0,0,0
25760.*A,NFE,0,8004,175,AEA,DCA,N,NON-NPIAS  ,NON-NPIAS,VA,CHESAPEAKE,FENTRESS,FENTRESS NALF,MILITARY,PR,US NAVY,OCEANOGRAPHIC OFC - CODE 3142,"WASHINGTON, DC 20373",36.692036,-76.134564, ,No,None,16,N,0,0,0
25762.*A,VA04,0,2100,40,AEA,DCA,N,NON-NPIAS  ,NON-NPIAS,VA,BOTETOURT,FINCASTLE,BARROWS,PR,PR,ROBERT E. BARROWS,2079 BRECKINRIDGE MILL RD,"FINCASTLE, VA 24090",37.492076,-79.928654, ,No,None,1100,N,0,3,0
25762.1*A,VA83,0,3039,150,AEA,DCA,N,NON-NPIAS  ,NON-NPIAS,VA,BOTETOURT,FINCASTLE,FINCASTLE,PR,PR,GEORGE P MOORE JR.,RD 2 BOX 61,"FINCASTLE, VA 24090",37.522354,-79.851987, ,No,None,1140,N,0,6,0
25765.*A,09VA,0,1100,50,AEA,DCA,N,NON-NPIAS  ,NON-NPIAS,VA,FLOYD,FLOYD,ALUM RIDGE,PR,PR,ANDREW G. MOLLICK,"392 CARTHAGE ROAD, NW","FLOYD, VA 24091",36.976518,-80.493944, ,No,None,2375,N,0,0,0
25765.1*A,VA06,0,2300,60,AEA,DCA,N,NON-NPIAS  ,NON-NPIAS,VA,FLOYD,FLOYD,DEER RUN,PR,PR,MARK J. PRICE,"RT 1, BOX 609","RINER, VA 24149",36.994296,-80.454496, ,No,None,2400,N,0,2,0
25767.*A,W90,0,3164,40,AEA,DCA,N,NON-NPIAS  ,NON-NPIAS,VA,BEDFORD,FOREST,NEW LONDON,PR,PU,"LIBERTY UNIVERSITY, INC.",1971 UNIVERSITY BLVD,"LYNCHBURG, VA 24515",37.271728,-79.335900, ,No,None,842,N,0,42,32761
25770.*A,APH,0,2202,100,AEA,DCA,N,NON-NPIAS  ,NON-NPIAS,VA,CAROLINE,FORT A. P. HILL,A P HILL AAF (FORT A P HILL),MILITARY,PR,US ARMY AERONAUTICAL SVCS AGENCY,,"FT BELVOIR, VA 22060",38.068890,-77.318961, ,No,None,219,N,0,0,0
25775.01*A,DAA,0,5421,75,AEA,DCA,N,NON-NPIAS  ,NON-NPIAS,VA,FAIRFAX,FORT BELVOIR,DAVISON AAF,MILITARY,PR,DAVISON ARMY AIRFIELD,"US ARMY ATCA-ASO, 6970 BRITTON DR","FT BELVIOR, VA 22060",38.714923,-77.180895, ILS/DME,Yes, MALSF,73,Y,0,0,0
25775.3*A,FAF,0,3025,75,AEA,DCA,N,NON-NPIAS  ,NON-NPIAS,VA,NEWPORT NEWS,FORT EUSTIS,FELKER AAF,MILITARY,PR,US ARMY ATCA-ASO,CAMERON STA,"ALEXANDRIA, VA 22314",37.132609,-76.608936, ,No,ODALS ,11,Y,0,0,0
25779.*A,FKN,0,4977,100,AEA,DCA,N,General Aviation ,3 Local,VA,ISLE OF WIGHT,FRANKLIN,FRANKLIN RGNL,PU,PU,CITY OF FRANKLIN,P O BOX 179,"FRANKLIN, VA 23851",36.700296,-76.902136, ,No,None,40,N,0,17,4105
25783.1*A,EZF,0,2999,100,AEA,DCA,N,NON-NPIAS  ,NON-NPIAS,VA,SPOTSYLVANIA,FREDERICKSBURG,SHANNON,PR,PU,SHANNON AIRPORT LLC,3380 SHANNON AIRPORT CIRCLE,"FREDERICKSBURG, VA 22408",38.266222,-77.449389, ,No,None,85,N,0,92,29707
25783.11*A,5VA5,0,1400,60,AEA,DCA,N,NON-NPIAS  ,NON-NPIAS,VA,STAFFORD,FREDERICKSBURG,CHIMNEY VIEW,PR,PR,SHARON WATSON,1273 BRENT POINT RD,"STAFFORD, VA 22554",38.403458,-77.315814, ,No,None,25,N,0,0,0
25783.12*A,RMN,0,5000,100,AEA,DCA,N,Reliever ,3 Local,VA,STAFFORD,STAFFORD,STAFFORD RGNL,PU,PU,STATE,"95 AVIATION WAY, PO BOX 370, PO BOX 370","FREDERICKSBURG, VA 22406",38.398111,-77.455472, ILS/DME,Yes, MALS,211,N,0,54,30141
25783.2*A,VA42,0,4100,50,AEA,DCA,N,NON-NPIAS  ,NON-NPIAS,VA,STAFFORD,FREDERICKSBURG,DOGWOOD AIRPARK,PR,PR,DOGWOOD AIRPARK ASSN,25 PIPER PLACE,"FREDERICKSBURG, VA 22405",38.359211,-77.450508, ,No,None,180,N,0,37,0
25791.*A,FRR,0,3008,75,AEA,DCA,N,General Aviation ,3 Local,VA,WARREN,FRONT ROYAL,FRONT ROYAL-WARREN COUNTY,PU,PU,COUNTY OF WARREN,"220 NORTH COMMERCE AVENUE, STE 100","FRONT ROYAL, VA 22630",38.917512,-78.253373, ,No,None,703,N,0,29,16025
25793.*A,25VG,0,800,60,AEA,NONE,N,NON-NPIAS  ,NON-NPIAS,VA,GRAYSON,GALAX,CT FIELDS,PR,PR,CLAY AND JILAINE THOMPSON,225 HILLCREST LANE,"GALAX, VA 24333",36.635600,-80.913900, ,No,None,2350,N,0,1,0
25794.1*A,HLX,0,4204,75,AEA,DCA,N,General Aviation ,3 Local,VA,CARROLL,GALAX HILLSVILLE,TWIN COUNTY,PU,PU,TWIN COUNTY ARPT COMSN,504 HANGAR RD.,"HILLSVILLE, VA 24343-5264",36.766111,-80.823560, ,No,None,2693,N,0,16,8846
25800.1*A,0VA9,0,1000,30,AEA,DCA,N,NON-NPIAS  ,NON-NPIAS,VA,GLOUCESTER,GLOUCESTER COURT HOUSE,HANDY STRIP,PR,PR,GILBERT HANDY,RT. 4 BOX 1765,"GLOUCESTER, VA 23061",37.447361,-76.453837, ,No,None,8,N,0,2,0
25800.11*A,92VA,0,3100,65,AEA,DCA,N,NON-NPIAS  ,NON-NPIAS,VA,GLOUCESTER,GLOUCESTER,NEW QUARTER FARM,PR,PR,RICHARD H LEIGH,4714 NEW QUARTER FARM LN,"GLOUCESTER, VA 23061",37.344722,-76.564444, ,No,None,38,N,0,2,0
25801.*A,VA44,0,2100,80,AEA,DCA,N,NON-NPIAS  ,NON-NPIAS,VA,GOOCHLAND,GOOCHLAND,ROSE RETREAT FARM,PR,PR,"SIDNEY G. COX, JR.",ROSE RETREAT FARM,"GOOCHLAND, VA 23063",37.716812,-77.883884, ,No,None,250,N,0,1,0
25805.*A,GVE,0,2300,40,AEA,DCA,N,NON-NPIAS  ,NON-NPIAS,VA,ORANGE,GORDONSVILLE,GORDONSVILLE MUNI,PU,PU,TOWN OF GORDONSVILLE,P.O. BOX 276,"GORDONSVILLE, VA 22942",38.155996,-78.165780, ,No,None,454,N,0,23,10374
25806.*A,VA46,0,2700,80,AEA,DCA,N,NON-NPIAS  ,NON-NPIAS,VA,FREDERICK,GORE,TIMBER RIDGE AIRPARK,PR,PR,"THE LORD'S CHAPEL, INC",411 THREE OAKS DRIVE,"GORE, VA 22637",39.296212,-78.362228, ,No,None,1024,N,0,0,0
25806.1*A,48VA,0,1500,50,AEA,DCA,N,NON-NPIAS  ,NON-NPIAS,VA,FREDERICK,GORE,AL'S FLD,PR,PR,AL HAYS,447 WHITACRE ROAD,"GORE, VA 22637-2144",39.290657,-78.350839, ,No,None,1120,N,0,0,0
25810.*A,06VA,0,2000,100,AEA,DCA,N,NON-NPIAS  ,NON-NPIAS,VA,AUGUSTA,GROTTOES,MOUNT HOREB FLD,PR,PR,A.L. WONDERLEY,"ROUTE 1, P.O. BOX 294","GROTTOES, VA 24441",38.249019,-78.855303, ,No,None,1160,N,0,1,0
25814.*A,33VA,0,1600,60,AEA,DCA,N,NON-NPIAS  ,NON-NPIAS,VA,HALIFAX,HALIFAX,FOX FIRE,PR,PR,HAROLD W. FERRELL,1101 FOXFIRE DR.,"VERNON HILL, VA 24597",36.784304,-79.049736, ,No,None,535,N,0,1,0
25815.*A,LFI,0,10002,150,AEA,DCA,N,NON-NPIAS  ,NON-NPIAS,VA,HAMPTON,HAMPTON,LANGLEY AFB,MILITARY,PR,USAF,LANGLEY AFB,"HAMPTON, VA 23665",37.082886,-76.360539,ILS LOC/GS,Yes,ALSF1 ALSF1,8,Y,0,0,187000
25816.52*A,VA50,0,2200,80,AEA,DCA,N,NON-NPIAS  ,NON-NPIAS,VA,HANOVER,HANOVER,WOODS FARM AIRSTRIP,PR,PR,E C C WOODS JR,6033 RIVER RD,"HANOVER, VA 23069-1806",37.715143,-77.302478, ,No,None,57,N,0,1,0
25823.*A,2VG3,0,1400,75,AEA,DCA,N,NON-NPIAS  ,NON-NPIAS,VA,ROCKINGHAM,HARRISONBURG,LINVILLE-EDOM,PR,PR,R J BURKHOLDER,5584 SHAVER MILL RD,"LINVILLE, VA 22834",38.548611,-78.871111, ,No,None,1350,N,0,0,0
25823.01*A,VA52,0,1800,30,AEA,DCA,N,NON-NPIAS  ,NON-NPIAS,VA,ROCKINGHAM,HARRISONBURG,FRANK FLD,PR,PR,LISA DAMON,"2011 FRANK FIELD LANE, 4165 S. FOUR MILE RUN DR.","ROCKINGHAM, VA 22802",38.485123,-78.945307, ,No,None,1650,N,0,1,0
25824.91*A,14VA,0,1900,50,AEA,DCA,N,NON-NPIAS  ,NON-NPIAS,VA,LOUDOUN,HILLSBORO,KRENS FARM,PR,PR,WILLIAM F. KRENS,PO BOX 844,"PURCELLVILLE, VA 22132",39.228991,-77.746660, ,No,None,790,N,0,2,0
25825.*A,00VI,0,1500,50,AEA,DCA,N,NON-NPIAS  ,NON-NPIAS,VA,CARROLL,HILLSVILLE,GROUNDHOG MOUNTAIN,PR,PR,JAMES C. HARRISON JR.,186367 BLUE RIDGE PKY,"HILLSVILLE, VA 24343",36.663333,-80.499500, ,No,None,2680,N,0,1,0
25825.23*A,57VA,0,1000,100,AEA,NONE,N,NON-NPIAS  ,NON-NPIAS,VA,CARROLL,HILLSVILLE,WEMMERING,PR,PR,JEFFREY LYNN WEMMERING,55 DUST TRAIL RD,"LAUREL, VA 24352",36.719150,-80.547314, ,No,None,2951,N,0,1,0
25826.*A,62VA,0,2200,200,AEA,DCA,N,NON-NPIAS  ,NON-NPIAS,VA,NANSEMOND,HOLLAND,GRASSO SALVAGE,PR,PR,KURT GRASSO,901 HARE ROAD,"SUFFOLK, VA 23437",36.669873,-76.728568, ,No,None,70,N,0,2,0
25826.1*A,2VA8,0,2100,50,AEA,DCA,N,NON-NPIAS  ,NON-NPIAS,VA,SUFFOLK,HOLLAND,BRANDYWYNE FARMS,PR,PR,PHILIP W. WYNE,7456 ELWOOD RD,"SUFFOLK, VA",36.683762,-76.829959, ,No,None,66,N,0,1,0
25827.13*A,VG42,0,2700,75,AEA,DCA,N,NON-NPIAS  ,NON-NPIAS,VA,PRINCE GEORGE,HOPEWELL,HENSHAW,PR,PR,RICHARD HENSHAW SR,13550 MOODY RD,"HOPEWELL, VA 23860",37.252361,-77.152667, ,No,None,85,N,0,1,0
25830.*A,HSP,0,5600,100,AEA,DCA,N,General Aviation ,4 Basic,VA,BATH,HOT SPRINGS,INGALLS FLD,PU,PU,BATH COUNTY ARPT AUTH,6240 AIRPORT ROAD,"HOT SPRINGS, VA 24445",37.951444,-79.833894, ILS,Yes,None,3792,N,0,3,9979
25833.7*A,0VA2,0,2000,70,AEA,DCA,N,NON-NPIAS  ,NON-NPIAS,VA,ALLEGHANY,IRON GATE,RIVERWOOD,PR,PR,PAUL STRAUSBAUGH,PO BOX 69,"CLIFTON FORGE, VA 24422",37.796518,-79.766714, ,No,None,1020,N,0,1,0
25835.3*A,VA56,0,2000,45,AEA,DCA,N,NON-NPIAS  ,NON-NPIAS,VA,ISLE OF WIGHT,IVOR,WELLS,PR,PR,CHRISTINE L. WELLS,10106 WHITE HILL TRAIL,"IVOR, VA 23866",37.003483,-76.827459, ,No,None,88,N,0,0,0
25836.4*A,0VG,0,5003,75,AEA,DCA,N,General Aviation ,4 Basic,VA,LEE,JONESVILLE,LEE COUNTY,PU,PU,"LEE COUNTY, VIRGINIA",PO BOX 367,"JONESVILLE, VA 24263",36.654083,-83.217833, ,No,None,1410,N,0,9,3503
25838.5*A,W31,0,3000,50,AEA,DCA,N,NON-NPIAS  ,NON-NPIAS,VA,LUNENBURG,KENBRIDGE,LUNENBURG COUNTY,PU,PU,LUNENBURG COUNTY,"11409 COURTHOUSE RD, ATTN: COUNTY ADMINISTRATOR","LUNENBURG, VA 23952",36.960403,-78.185111, ,No,None,526,N,0,1,406
25840.01*A,VG01,0,2900,50,AEA,DCA,N,NON-NPIAS  ,NON-NPIAS,VA,CHARLOTTE,KEYSVILLE,EUREKA,PR,PR,JOHN WATTS,"ROUTE 2, P.O. BOX 54","KEYSVILLE, VA 23947",37.062372,-78.561694, ,No,None,420,N,0,1,0
25841.02*A,VA08,0,2600,60,AEA,DCA,N,NON-NPIAS  ,NON-NPIAS,VA,NORTHUMBERLAND,KILMARNOCK,LONGBRANCH,PR,PR,CRAIG GRASS,1064 BLUFF POINT RD,"KILMARNOCK, VA 22482",37.717079,-76.358835, ,No,None,20,N,0,3,0
25841.3*A,VA57,0,4888,50,AEA,DCA,N,NON-NPIAS  ,NON-NPIAS,VA,KING GEORGE,KING GEORGE,POWHATAN,PR,PR,ACHILLE  M. GUEST,"POWHATAN PLANTATION, PO BOX 127","KING GEORGE, VA 22485",38.248462,-77.219145, ,No,None,60,N,0,0,0
25845.*A,LVL,0,3020,50,AEA,DCA,N,NON-NPIAS  ,NON-NPIAS,VA,BRUNSWICK,LAWRENCEVILLE,BRUNSWICK COUNTY,PU,PU,COUNTY OF BRUNSWICK,PO BOX 399,"LAWRENCEVILLE, VA 23868",36.772833,-77.794250, ,No,None,328,N,0,2,2633
25847.02*A,3VA5,0,1700,100,AEA,NONE,N,NON-NPIAS  ,NON-NPIAS,VA,LOUDOUN,LEESBURG,GOOSE HUNT FARM,PR,PR,NEAL C. NICHOLS,21467 OATLANDS RD,"ALDIE, VA 20105",39.028889,-77.625000, ,No,None,340,N,0,0,0
25847.1*A,JYO,0,5500,100,AEA,DCA,N,Reliever ,1 National,VA,LOUDOUN,LEESBURG,LEESBURG EXEC,PU,PU,TOWN OF LEESBURG,"25 WEST MARKET ST., 25 WEST MARKET ST.","LEESBURG, VA 20176",39.077972,-77.557500,ILS/DME ,Yes,ODALS ,389,Y,11,206,106679
25856.42*A,LKU,0,4300,100,AEA,DCA,N,General Aviation ,3 Local,VA,LOUISA,LOUISA,LOUISA COUNTY/FREEMAN FLD,PU,PU,IND DEV AUTH OF LOUISA CO.,PO BOX 27,"LOUISA, VA 23093",38.009825,-77.970127, LOC/DME,No,None,493,N,1,51,30886
25857.4*A,VA61,0,3000,50,AEA,DCA,N,NON-NPIAS  ,NON-NPIAS,VA,LOUDOUN,LOVETTSVILLE,LOVETTSVILLE AIRFIELD,PR,PR,THOMAS C. POMEROY,12582 LUTHERAN CHURCH ROAD,"LOVETTSVILLE, VA 20180",39.264892,-77.653642, ,No,None,529,N,0,3,0
25857.41*A,VA62,0,2200,75,AEA,DCA,N,NON-NPIAS  ,NON-NPIAS,VA,LOUDOUN,LOVETTSVILLE,THE GRASS PATCH,PR,PR,BILL HARGREAVES,12982 AXLINE RD,"LOVETTSVILLE, VA 20180",39.257889,-77.653864, ,No,None,530,N,0,4,0
25857.8*A,8VA6,0,1400,120,AEA,DCA,N,NON-NPIAS  ,NON-NPIAS,VA,NELSON,LOVINGSTON,FLATWOODS,PR,PR,BASIL JOE CLARK,1507 SLEEPY HOLLOW RD,"ROSLAND, VA 22967",37.738196,-78.962246, ,No,None,840,N,0,1,0
25857.82*A,VA96,0,1500,30,AEA,DCA,N,NON-NPIAS  ,NON-NPIAS,VA,NELSON,LOVINGSTON,FABER,PR,PR,JOYCE T. & ROGER F. WOOD,"RT 1, BOX 23","FABER, VA 22938",37.825419,-78.731685, ,No,None,640,N,0,2,0
25857.83*A,1VA3,0,1750,100,AEA,DCA,N,NON-NPIAS  ,NON-NPIAS,VA,NELSON,LOVINGSTON,TYE RIVER,PR,PR,CAROL WALSH,485 TYE RIVER RD,"ARRINGTON, VA 22922",37.658197,-78.945578, ,No,None,650,N,0,2,0
25857.84*A,VG52,0,1800,60,AEA,DCA,N,NON-NPIAS  ,NON-NPIAS,VA,NELSON,LOVINGSTON,WOODRIDGE FLD,PR,PR,BARRY WOOD,151 OLD RIDGE RD,"LOVINGSTON, VA 22949-3308",37.839167,-78.821667, ,No,None,663,N,0,2,0
25859.2*A,LUA,0,3126,75,AEA,DCA,N,General Aviation ,3 Local,VA,PAGE,LURAY,LURAY CAVERNS,PU,PU,LURAY & PAGE CO. AIRPORT AUTHORITY,270 CIRCLE VIEW ROAD,"LURAY, VA 22835",38.666710,-78.500835, ,No,None,902,N,0,21,3500
25862.*A,W24,0,2932,50,AEA,DCA,N,NON-NPIAS  ,NON-NPIAS,VA,LYNCHBURG,LYNCHBURG,FALWELL,PR,PU,4180 RICHMOND HIGHWAY LLC,"FREEDOM AVIATION, 310 HANGER ROAD","LYNCHBURG, VA 24502",37.377921,-79.122245, ,No,None,939,N,0,9,8219
25863.*A,LYH,93206,7100,150,AEA,DCA,Y,Primary Non-Hub,P-4 N,VA,CAMPBELL,LYNCHBURG,LYNCHBURG RGNL/PRESTON GLENN FLD,PU,PU,CITY OF LYNCHBURG,"350 TERMINAL DRIVE, SUITE 100","LYNCHBURG, VA 24502",37.325389,-79.201222,ILS ,Yes,MALSR ,938,Y,0,0,0
25864.6*A,3VG2,0,2800,60,AEA,DCA,N,NON-NPIAS  ,NON-NPIAS,VA,NORTHAMPTON,MACHIPONGO,MACHIPONGO INTL,PR,PR,"SEASIDE LAND PROTECTION, INC.",2242 ARLINGTON CHASE RD,"CAPE CHARLES, VA 23310",37.388333,-75.892500, ,No,None,36,N,0,0,0
25865.*A,VG43,0,1125,60,AEA,DCA,N,NON-NPIAS  ,NON-NPIAS,VA,MADISON,MADISON,ARROWPOINT,PR,PR,WILLIAM W SANFORD,1570 FOREST DR.,"ORANGE, VA 22960",38.306389,-78.098889, ,No,None,315,N,0,1,0
25867.*A,VG57,0,2450,45,AEA,DCA,N,NON-NPIAS  ,NON-NPIAS,VA,FAUQUIER,CATLETT,MAPLES FLD,PR,PR,CHARLES MAPLES,3818 DANIELS RUN COURT,"FAIRFAX, VA 22030",38.605676,-77.584711, ,No,None,225,N,0,1,110
25867.2*A,51VA,0,2000,50,AEA,DCA,N,NON-NPIAS  ,NON-NPIAS,VA,PRINCE WILLIAM,MANASSAS,SKYVIEW,PR,PR,JAMES F. GILMORE,6910 CADET AVE,"FORT MYERS, FL 33905",38.716229,-77.633880, ,No,None,340,N,0,1,0
25867.21*A,VA71,0,2000,100,AEA,DCA,N,NON-NPIAS  ,NON-NPIAS,VA,PRINCE WILLIAM,MANASSAS,ADEN FLD,PR,PR,ALLAN D. CORS,7413 GEORGETOWN CT,"MCLEAN, VA 22102",38.648453,-77.532766, ,No,None,210,N,0,1,0
25871.*A,0VA3,0,2200,70,AEA,DCA,N,NON-NPIAS  ,NON-NPIAS,VA,KING WILLIAM,MANQUIN,HUNT,PR,PR,WILSON B. SPRENKLE,6174 E RIVER ROAD,"KING WILLIAM, VA 23086",37.698754,-77.095250, ,No,None,150,N,0,2,0
25871.01*A,0VI1,0,3000,60,AEA,DCA,N,NON-NPIAS  ,NON-NPIAS,VA,KING WILLIAM,MANQUIN,BROOKLYN,PR,PR,"BROOKLYN AIR PARK, LLC",121 PINEPOINT RD,"WILLIAMSBURG, VA 23185",37.688889,-77.101389, ,No,None,145,N,0,0,0
25873.1*A,MKJ,0,5252,75,AEA,DCA,N,General Aviation ,3 Local,VA,SMYTH,MARION/WYTHEVILLE,MOUNTAIN EMPIRE,PU,PU,SMYTH WYTHE ARPT CMSN,8223 LEE HIGHWAY,"RURAL RETREAT, VA 24368",36.894861,-81.349944, LOC/DME,No,None,2558,N,0,11,11107
25876.*A,VA12,0,1500,60,AEA,DCA,N,NON-NPIAS  ,NON-NPIAS,VA,HENRY,MARTINSVILLE,GRAVELY,PR,PR,EDWARD M. GRAVELY,PO BOX 3762,"MARTINSVILLE, VA 24115",36.646804,-79.796981, ,No,None,750,N,0,0,0
25876.01*A,6VA2,0,4000,100,AEA,DCA,N,NON-NPIAS  ,NON-NPIAS,VA,HENRY,MARTINSVILLE,LOURY LESTER AIRPARK,PR,PR,LOURY LESTER AIRPARK INC.,PO BOX 3110,"MARTINSVILLE, VA 24112",36.741804,-79.847815, ,No,None,1030,N,0,0,0
25876.1*A,MTV,0,5002,100,AEA,DCA,N,General Aviation ,2 Regional,VA,HENRY,MARTINSVILLE,BLUE RIDGE,PU,PU,BLUE RIDGE ARPT AUTH,525 AIRPORT ROAD,"MARTINSVILLE, VA 24112",36.630753,-80.018338, LOC/DME,No, ODALS,940,N,1,20,23500
25876.12*A,VA72,0,2200,100,AEA,DCA,N,NON-NPIAS  ,NON-NPIAS,VA,HENRY,MARTINSVILLE,COVINGTON,PR,PR,C W COVINGTON,"AIR HAVEN FARM, PO BOX 155","SPENCER, VA 24165",36.600138,-80.038656, ,No,None,940,N,0,2,0
25878.*A,9VA1,0,2200,150,AEA,DCA,N,NON-NPIAS  ,NON-NPIAS,VA,MATHEWS,MATHEWS,HOLLY POINT,PR,PR,R. W. BREEDEN,HOLLY POINT FARM/RT 617,"MATHEWS, VA 23128",37.405416,-76.388279, ,No,None,12,N,0,0,0
25878.06*A,5VG2,0,1300,60,AEA,DCA,N,NON-NPIAS  ,NON-NPIAS,VA,MATHEWS,MATHEWS,FOSTER FLD,PR,PR,CHESBAY CONSERVATION LLC,"ATTN: JOSEPH M. PERDUE, P.O. BOX 311","PORT HAYWOOD, VA 23138",37.454436,-76.372192, ,No,None,13,N,0,2,0
25878.5*A,VA73,0,3100,250,AEA,DCA,N,NON-NPIAS  ,NON-NPIAS,VA,CHESTERFIELD,MATOACA,MAZZA,PR,PR,JOHN V. MAZZA,20501 LITTLE ROAD,"SOUTH CHESTERFIELD, VA 23803",37.244595,-77.494153, ,No,None,190,N,0,1,0
25878.8*A,VA58,0,2650,60,AEA,DCA,N,NON-NPIAS  ,NON-NPIAS,VA,SHENANDOAH,MAURERTOWN,RIVER BEND,PR,PR,PAUL L. MILEY,"HEADLEY RD, ROUTE 600 BOX 1833","MAURERTOWN, VA 22644",38.906111,-78.444444, ,No,None,606,N,0,2,0
25878.95*A,VA49,0,1400,50,AEA,DCA,N,NON-NPIAS  ,NON-NPIAS,VA,ROCKINGHAM,MCGAHEYSVILLE,LYNNHAVEN FLD,PR,PR,JEFFREY A. LUCATORTO,10306 DAIRY RD,"MCGAHEYSVILLE, VA 22840",38.331111,-78.754444, ,No,None,1100,N,0,1,0
25882.*A,MFV,0,5000,100,AEA,DCA,N,General Aviation ,3 Local,VA,ACCOMACK,MELFA,ACCOMACK COUNTY,PU,PU,COUNTY OF ACCOMACK,29194 PARKWAY NORTH,"MELFA, VA 23410",37.646879,-75.761045,LOC/DME ,No,None,47,N,0,20,7570
25883.1*A,VA79,0,3200,75,AEA,DCA,N,NON-NPIAS  ,NON-NPIAS,VA,FAUQUIER,MIDDLEBURG,HICKORY TREE FARM,PR,PR,JAMES P MILLS,P O BOX 1261,"MIDDLEBURG, VA 20118",38.952888,-77.746938, ,No,None,544,N,0,3,0
25883.33*A,53VA,0,2600,50,AEA,DCA,N,NON-NPIAS  ,NON-NPIAS,VA,FAUQUIER,MIDLAND,HORSE FEATHERS,PR,PR,FRANK R. THOMPSON,9669 GREEN RD,"MIDLAND, VA 22728",38.634010,-77.757493, ,No,None,390,N,0,2,0
25884.19*A,VA81,0,1400,80,AEA,DCA,N,NON-NPIAS  ,NON-NPIAS,VA,LOUISA,MINERAL,CUB FLD,PR,PR,DORIS E. MCCRAY,15434 CROSS COUNTY RD,"MINERAL, VA 23117",37.945419,-77.899440, ,No,None,396,N,0,0,0
25884.4*A,W91,0,3058,50,AEA,DCA,N,NON-NPIAS  ,NON-NPIAS,VA,BEDFORD,MONETA,SMITH MOUNTAIN LAKE,PR,PU,"SMITH MOUNTAIN LAKE AIRPORT, LLC.",1090 CUTLASS RD,"MONETA, VA 24121",37.107722,-79.592472, ,No,None,892,N,0,29,5141
25884.41*A,VA68,0,3000,60,AEA,DCA,N,NON-NPIAS  ,NON-NPIAS,VA,BEDFORD,MONETA,LAKEVIEW AERODROME,PR,PR,KEVIN MURRAY,1900 SKYWAY DR,"MONETA, VA 24121",37.118754,-79.602808, ,No,None,1020,N,0,6,0
25884.42*A,2VA0,0,1800,70,AEA,DCA,N,NON-NPIAS  ,NON-NPIAS,VA,BEDFORD,MONETA,RED BIRDS AIRYARD,PR,PR,CHERYL BEST MILLER,2760 BELLS MILL ROAD,"GOODE, VA 24556",37.112643,-79.609197, ,No,None,940,N,0,1,0
25885.4*A,7VA9,0,2300,75,AEA,DCA,N,NON-NPIAS  ,NON-NPIAS,VA,HIGHLAND,MONTEREY,HANNAH FLD,PR,PR,HANNAH FIELD LLC,6840 WHEELBARGER RD,"DAYTON, VA 22821",38.398333,-79.600278, ,No,None,3049,N,0,0,0
25885.7*A,1VG2,0,2800,50,AEA,DCA,N,NON-NPIAS  ,NON-NPIAS,VA,WESTMORELAND,MONTROSS,WHITHALL FARM,PR,PR,,,,38.127667,-76.689167, ,No,None,23,N,0,1,0
25886.05*A,16VA,0,1650,50,AEA,NONE,N,NON-NPIAS  ,NON-NPIAS,VA,AUGUSTA,MOUNT SOLON,ECHOLS FLD,PR,PR,YELLOW JACKET HOLLOW,505 PATLEIGH RD,"CATONSVILLE, MD 21228",38.334444,-79.160556, ,No,None,1782,N,0,1,0
25887.9*A,5VG1,0,1200,60,AEA,DCA,N,NON-NPIAS  ,NON-NPIAS,VA,ROCKBRIDGE,NATURAL BRIDGE STATION,BLACK BRIDGE,PR,PR,DONALD P. JEFFER,200 BLACK BRIDGE LANE,"NATURAL BRIDGE STATION, VA 24579",37.615539,-79.505317, ,No,None,808,N,0,1,0
25888.18*A,VG22,0,1750,40,AEA,DCA,N,NON-NPIAS  ,NON-NPIAS,VA,NELSON,NELLYSFORD,ROCKFISH,PR,PR,ROCKFISH GLIDERPORT LLC,"227 EDGEWOOD DRIVE, PO BOX 602","NELLYSFORD, VA 22958",37.878819,-78.893558, ,No,None,760,N,0,3,0
25889.*A,VA85,0,2400,100,AEA,DCA,N,NON-NPIAS  ,NON-NPIAS,VA,CRAIG,NEW CASTLE,NEW CASTLE INTL,PR,PR,LANIER FRANTZ,HC-34 BOX 54,"NEW CASTLE, VA 24127-9312",37.483463,-80.099769, ,No,None,1320,N,0,5,0
25890.*A,VG19,0,1660,60,AEA,DCA,N,NON-NPIAS  ,NON-NPIAS,VA,ACCOMACK,NEW CHURCH,SAWYER,PR,PR,R. L. SAWYER,4891 MILES RD,"NEW CHURCH, VA 23415",37.990679,-75.591871, ,No,None,13,N,0,3,1600
25893.*A,9VA4,0,1550,90,AEA,DCA,N,NON-NPIAS  ,NON-NPIAS,VA,SHENANDOAH,NEW MARKET,FRANWOOD FARMS INC,PR,PR,FRANWOOD FARMS INC.,9700 S. CONGRESS STREET,"NEW MARKET, VA 22844",38.690950,-78.629459, ,No,None,990,N,0,2,0
25893.1*A,8W2,0,2920,60,AEA,DCA,N,NON-NPIAS  ,NON-NPIAS,VA,SHENANDOAH,NEW MARKET,NEW MARKET,PR,PU,ROBERT THOMAS,PO BOX 762,"MIDDLEBURG, VA 20118",38.655985,-78.708496, ,No,None,962,N,0,16,16168
25897.*A,PHF,211487,8003,150,AEA,DCA,Y,Primary Non-Hub,P-4 N,VA,NEWPORT NEWS,NEWPORT NEWS,NEWPORT NEWS/WILLIAMSBURG INTL,PU,PU,PENINSULA ARPT CMSN,"900 BLAND BLVD, SUITE G","NEWPORT NEWS, VA 23602",37.131889,-76.492972,ILS/DME ILS/DME,Yes,MALSR ,42,Y,0,0,0
25903.*A,NGU,0,8370,200,AEA,DCA,N,NON-NPIAS  ,NON-NPIAS,VA,NORFOLK,NORFOLK,NORFOLK NS (CHAMBERS FLD),MILITARY,PR,U.S. NAVY,OCEANOGRAPHIC OFC-CODE 3142,"WASHINGTON, DC 20373",36.937468,-76.289278,ILS/DME ,Yes,ALSF2 SSALS,14,Y,0,0,0
25905.*A,ORF,1990864,9001,150,AEA,DCA,Y,Primary Small,P-3 S,VA,NORFOLK,NORFOLK,NORFOLK INTL,PU,PU,NORFOLK AIRPORT AUTH,2200 NORVIEW AVE,"NORFOLK, VA 23518-5807",36.894604,-76.201229,ILS/DME ILS/DME,Yes,MALSR MALSR,26,Y,0,0,0
25905.1*A,PVG,0,5350,100,AEA,DCA,N,Reliever ,2 Regional,VA,CHESAPEAKE,NORFOLK,HAMPTON ROADS EXEC,PR,PU,"VIRGINIA AVIATION ASSOCIATES, L.L.C","5172 W. MILITARY HWY, SUITE A","CHESAPEAKE, VA 23321",36.780765,-76.451280,ILS/DME ,Yes,None,28,N,2,120,69792
25906.2*A,CPK,0,5500,100,AEA,DCA,N,General Aviation ,2 Regional,VA,CHESAPEAKE,NORFOLK,CHESAPEAKE RGNL,PU,PU,CHESAPEAKE AIRPORT AUTHORITY,2800 AIRPORT DRIVE,"CHESAPEAKE, VA 23323-6402",36.665611,-76.320667,ILS/DME ,Yes,MALSR ,18,N,0,109,50298
25915.*A,11VG,0,1800,70,AEA,DCA,N,NON-NPIAS  ,NON-NPIAS,VA,WESTMORELAND,OAK GROVE,DEVIL'S REACH LANDING,PR,PR,LARRY SPROUSE,2986 KINGS HWY SUITE H,"OAK GROVE, VA 22443",38.209444,-77.000556, ,No,None,28,N,0,1,0
25922.*A,VA91,0,2100,100,AEA,DCA,N,NON-NPIAS  ,NON-NPIAS,VA,ACCOMACK,ONANCOCK,JOHNSON FLD,PR,PR,LEE E. JOHNSON,20190 FAIRGROUNDS RD,"ONANCOCK, VA 23417",37.704853,-75.726596, ,No,None,38,N,0,0,0
25922.1*A,VA92,0,1200,125,AEA,DCA,N,NON-NPIAS  ,NON-NPIAS,VA,ACCOMACK,ONANCOCK,PEACE AND PLENTY FARM,PR,PR,R.P. LALOR,PO BOX 249,"WACHAPREAGUE, VA 23480",37.723889,-75.786111, ,No,None,8,N,0,0,0
25923.*A,VG20,0,2900,55,AEA,DCA,N,NON-NPIAS  ,NON-NPIAS,VA,ACCOMACK,ONLEY,ONLEY,PR,PR,"ALBERT MCMATH, JR.",PO BOX 215,"ONLEY, VA 23418",37.675131,-75.709929, ,No,None,45,N,0,2,0
25926.*A,OMH,0,3200,75,AEA,DCA,N,General Aviation ,3 Local,VA,ORANGE,ORANGE,ORANGE COUNTY,PU,PU,ORANGE COUNTY,P O BOX 111,"ORANGE, VA 22960",38.247194,-78.045611, ,No,None,464,N,0,34,8473
25926.02*A,90VA,0,1400,50,AEA,DCA,N,NON-NPIAS  ,NON-NPIAS,VA,ORANGE,ORANGE,HEN & BACON,PR,PR,KENNETH D BRUNK,230 MASON ST,"ROCKINGHAM, VA 22821",38.218056,-78.211944, ,No,None,430,N,0,1,0
25926.03*A,2VG7,0,1500,70,AEA,DCA,N,NON-NPIAS  ,NON-NPIAS,VA,ORANGE,ORANGE,SEVEN GABLES,PR,PR,RHON MANOR,26301 BELMONT RD,"ORANGE, VA 22960",38.163889,-77.850000, ,No,None,411,N,0,2,0
25926.16*A,VA20,0,1200,100,AEA,DCA,N,NON-NPIAS  ,NON-NPIAS,VA,ACCOMACK,PAINTER,PAINTER FLD,PR,PR,SHORE AVIATION,16620 COAL KILN RD,"PAINTER, VA 23420",37.567593,-75.793860, ,No,None,40,N,0,2,45
25926.5*A,53VG,0,1900,50,AEA,DCA,N,NON-NPIAS  ,NON-NPIAS,VA,ACCOMACK,PAINTER,THE SALMON  FARM,PR,PR,GLEN SALMON,PO BOX 534,"PAINTER, VA 23420",37.613889,-75.801111, ,No,None,41,N,0,2,0
25927.*A,9VA3,0,1800,75,AEA,DCA,N,NON-NPIAS  ,NON-NPIAS,VA,ACCOMACK,PARKSLEY,CRIPPEN CREEK FARM,PR,PR,"T.T. HYDE IV, TRUSTEE",BOX 206,"HEATHSVILLE, VA 22473",37.762906,-75.571872, ,No,None,6,N,0,0,0
25927.4*A,VG16,0,1900,75,AEA,DCA,N,NON-NPIAS  ,NON-NPIAS,VA,PATRICK,PATRICK SPRINGS,LANDIS,PR,PR,RICHARD LANDIS,284 SCENIC DRIVE,"STUART, VA 24171",36.625136,-80.170603, ,No,None,1100,N,0,1,0
25936.*A,PTB,0,5002,100,AEA,DCA,N,General Aviation ,3 Local,VA,DINWIDDIE,PETERSBURG,DINWIDDIE COUNTY,PU,PU,DINWIDDIE ARPT AND INDUSTRIAL AUTH.,6775 BECK-CHAPPELL DRIVE,"PETERSBURG, VA 23803",37.184302,-77.506175,LOC/DME ,No,ODALS ,192,N,4,52,32623
25952.*A,VA94,0,1600,100,AEA,DCA,N,NON-NPIAS  ,NON-NPIAS,VA,POWHATAN,POWHATAN,PLAINVIEW,PR,PR,,,,37.535704,-77.891388, ,No,None,400,N,0,0,0
25959.*A,NYG,0,4250,200,AEA,DCA,N,NON-NPIAS  ,NON-NPIAS,VA,STAFFORD,QUANTICO,QUANTICO MCAF /TURNER FLD,MILITARY,PR,US NAVY,OCEANOGRAPHIC OFC-CODE 3142,"WASHINGTON, DC 20373",38.503625,-77.305033, ,No,None,11,Y,0,0,0
25960.*A,W96,0,3602,75,AEA,DCA,N,General Aviation ,3 Local,VA,NEW KENT,QUINTON,NEW KENT COUNTY,PU,PU,COUNTY OF NEW KENT,"P. O. BOX 150, 12007 COURT HOUSE CIRCLE","NEW KENT, VA 23124",37.503429,-77.126558, ,No,None,120,N,0,37,19202
25962.7*A,7VA5,0,1700,40,AEA,DCA,N,NON-NPIAS  ,NON-NPIAS,VA,CHARLOTTE,REDHOUSE,REDHOUSE AIRFIELD,PR,PR,J. M. BARKSDALE,,"REDHOUSE, VA 23963",37.189034,-78.829733, ,No,None,742,N,0,1,0
25963.*A,VA98,0,2500,200,AEA,DCA,N,NON-NPIAS  ,NON-NPIAS,VA,NORTHUMBERLAND,REEDVILLE,REEDVILLE,PR,PR,ZAPATA PROTEIN,PO BOX 175,"REEDVILLE, VA 22539",37.828186,-76.273277, ,No,None,12,N,0,6,0
25963.02*A,VA99,0,2200,80,AEA,DCA,N,NON-NPIAS  ,NON-NPIAS,VA,NORTHUMBERLAND,REEDVILLE,FEDERHART-OPHELIA,PR,PR,"OPHELIA AIRSTRIP, LLC","C/O TRISTRAM HYDE, 278 TOLSTOY LANE","SEVERNA PARK, MD 21146-0247",37.905962,-76.290500, ,No,None,13,N,0,8,125
25963.2*A,6VA0,0,1400,40,AEA,DCA,N,NON-NPIAS  ,NON-NPIAS,VA,NORTHUMBERLAND,REIDVILLE,REMO PRIVATE,PR,PR,STANLEY OGINZ,PINK DOGWOOD FARM,"HADENSVILLE, VA 23067",37.818743,-76.317723, ,No,None,13,N,0,0,0
25963.8*A,29VA,0,2500,120,AEA,DCA,N,NON-NPIAS  ,NON-NPIAS,VA,FAUQUIER,REMINGTON,RHYNALDS RANCH,PR,PR,DON & DIANE W. RHYNALDS,5350 SAVANNAH BRANCH RD,"BEALETON, VA 22712",38.529291,-77.738881, ,No,None,285,N,0,1,0
25963.81*A,VG07,0,1500,75,AEA,DCA,N,NON-NPIAS  ,NON-NPIAS,VA,FAUQUIER,REMINGTON,RULAR,PR,PR,LARRY L. SETTI,12028 FREEMAN'S FORD ROAD,"REMINGTON, VA 22734",38.538889,-77.828333, ,No,None,305,N,0,1,0
25967.*A,VG12,0,1900,50,AEA,DCA,N,NON-NPIAS  ,NON-NPIAS,VA,ORANGE,RHOADESVILLE,SIMPSONVILLE,PR,PR,RANDY L SIMPSON,29200 FRIENDSHIP LA,"RHOADESVILLE, VA 22542",38.333464,-77.866383, ,No,None,400,N,0,1,0
25969.12*A,JFZ,0,4299,75,AEA,DCA,N,General Aviation ,4 Basic,VA,TAZEWELL,RICHLANDS,TAZEWELL COUNTY,PU,PU,TAZEWELL CO AIRPORT AUTHORITY,P.O. BOX 170,"CEDAR BLUFF, VA 24609",37.063750,-81.798278, LOC/DME,No,None,2653,N,0,12,5676
25973.3*A,80VA,0,2000,90,AEA,DCA,N,NON-NPIAS  ,NON-NPIAS,VA,LOUISA,RICHMOND,HOLLY SPRINGS,PR,PR,JAMES DUNN SR,RT 1 BOX 2270,"MONTPELIER, VA 23192",37.791255,-77.824716, ,No,None,250,N,0,7,0
25973.31*A,4VA3,0,2250,50,AEA,DCA,N,NON-NPIAS  ,NON-NPIAS,VA,HENRICO,RICHMOND,FLYING W,PR,PR,GERALD WEAVER,8570 OSBORNE TURNPIKE,"RICHMOND, VA 23231",37.429870,-77.394426, ,No,None,101,N,0,4,0
25973.32*A,4VA8,0,1600,100,AEA,DCA,N,NON-NPIAS  ,NON-NPIAS,VA,HANOVER,RICHMOND,CHRISTIAN'S,PR,PR,E. C. GARATI/D. G. HARRISON,5417 CHRISTIAN FIELD DRIVE,"MECHANICSVILLE, VA 23111-6414",37.613756,-77.295811, ,No,None,125,N,0,0,0
25973.35*A,OFP,0,5402,100,AEA,DCA,N,General Aviation ,2 Regional,VA,HANOVER,RICHMOND/ASHLAND,HANOVER COUNTY MUNI,PU,PU,COUNTY OF HANOVER,DIRECTOR OF PUBLIC WORKS,"HANOVER, VA 23069",37.708944,-77.436639,LOC/DME ,No,None,206,N,2,102,36165
25974.*A,FCI,0,5500,100,AEA,DCA,N,Reliever ,2 Regional,VA,CHESTERFIELD,RICHMOND,RICHMOND EXEC-CHESTERFIELD COUNTY,PU,PU,CHESTERFIELD CO,PO BOX 40,"CHESTERFIELD, VA 23832-0040",37.406444,-77.524833, ILS/DME,Yes, MALSR,236,N,10,100,64230
25977.*A,RIC,2190907,9003,150,AEA,DCA,Y,Primary Small,P-3 S,VA,HENRICO,RICHMOND,RICHMOND INTL,PU,PU,CAPITAL REGION ARPT COMM.,1 RICHARD E BYRD TERMINAL DR,"RICHMOND, VA 23250",37.505181,-77.319739,ILS ILS,Yes,MALSR ALSF2,167,Y,0,0,0
25977.5*A,9VA6,0,2200,90,AEA,NONE,N,NON-NPIAS  ,NON-NPIAS,VA,POWHATAN,RICHMOND,SAUNDERS FLD,PR,PR,GEORGE SAUNDERS JR.,3880THREE BRIDGE RD.,"POWHATAN, VA 23139",37.581399,-77.918771, ,No,None,321,N,0,0,0
25977.51*A,5VA4,0,3966,75,AEA,NONE,N,NON-NPIAS  ,NON-NPIAS,VA,KING WILLIAM,RICHMOND,MATTS,PR,PR,COASTAL FARM SERVICE LLC,P.O. BOX 534,"MECHANICSVILLE, VA 23111",37.721589,-77.220340, ,No,None,95,N,0,2,0
25980.*A,VA02,0,3000,150,AEA,DCA,N,NON-NPIAS  ,NON-NPIAS,VA,HENRY,RIDGEWAY,PACE,PR,PR,T. KEM PACE,200 PACE AIRPORT RD,"RIDGEWAY, VA 24148",36.585416,-79.893929, ,No,None,800,N,0,8,0
25982.5*A,4VA9,0,1800,50,AEA,DCA,N,NON-NPIAS  ,NON-NPIAS,VA,CULPEPER,RIXEYVILLE,PLEASANTDALE FLD,PR,PR,JOHN M. CORRADI,17586 RYLAND CHAPEL ROAD,"RIXEYVILLE, VA 22737",38.569012,-77.920551, ,No,None,420,N,0,1,0
25986.*A,ROA,361131,6800,150,AEA,DCA,Y,Primary Non-Hub,P-4 N,VA,ROANOKE,ROANOKE,ROANOKE-BLACKSBURG RGNL/WOODRUM FLD,PU,PU,ROANOKE BLACKSBURG RGNL/WOODRUM FIE,5202 AVN DR.,"ROANOKE, VA 24012-1148",37.325472,-79.975417,LDA/DME ,No,MALSR ,1175,Y,0,0,0
25988.01*A,81VA,0,1600,30,AEA,DCA,N,NON-NPIAS  ,NON-NPIAS,VA,FRANKLIN,ROCKY MOUNT,FERGUSON,PR,PR,J HATCHER FERGUSON,RT 1 BOX 546,"WERTZ, VA 24184",37.118056,-79.788611, ,No,None,1050,N,0,3,0
25988.02*A,0VA4,0,2100,90,AEA,DCA,N,NON-NPIAS  ,NON-NPIAS,VA,FRANKLIN,ROCKY MOUNT,WORLEY FLD,PR,PR,DONALD E. OR JOYCE M. WORLEY JR.,200 SONTAG RD,"ROCKY MOUNT, VA 24151-4201",36.950140,-79.879478, ,No,None,1219,N,0,2,0
25988.03*A,VG40,0,2000,75,AEA,DCA,N,NON-NPIAS  ,NON-NPIAS,VA,FRANKLIN,ROCKY MOUNT,WOODY FLD,PR,PR,HERBERT DALLAS WOODY III,200 AVIATORS CIRCLE,"ROCKY MOUNT, VA 24151",36.886822,-79.863925, ,No,None,1150,N,0,0,0
25988.05*A,VG53,0,1976,80,AEA,DCA,N,NON-NPIAS  ,NON-NPIAS,VA,FRANKLIN,ROCKY MOUNT,VENNING'S LANDING,PR,PR,S. GREGORY VENNING,695 LAKEWOOD FOREST RD,"MONETA, VA 24121",37.043611,-79.801389, ,No,None,1100,N,0,3,0
25988.06*A,VG58,0,1800,80,AEA,NYC,N,NON-NPIAS  ,NON-NPIAS,VA,FRANKLIN,ROCKY MOUNT,ABBOTT,PR,PR,JAY D. ABBOTT,P.O. BOX 486,"ROCKY MOUNT, VA 24151",36.945333,-79.796667, ,No,None,981,N,0,1,0
25990.1*A,VA13,0,2000,60,AEA,DCA,N,NON-NPIAS  ,NON-NPIAS,VA,CAMPBELL,RUSTBURG,BREEZY KNOLL,PR,PR,"FRANKLIN T GREENE II, ANNE B GREENE",2501 BEAR CREEK RD.,"RUSTBURG, VA 24588",37.265423,-79.042798, ,No,None,785,N,0,0,0
25994.*A,1VA0,0,2400,100,AEA,DCA,N,NON-NPIAS  ,NON-NPIAS,VA,GOOCHLAND,SABOT,SABOT,PR,PR,SABOT HILL FARM INC,11543-A NUCKOLS ROAD,"GLEN ALLEN, VA 23059-0290",37.629313,-77.747494, ,No,None,255,N,0,0,0
25995.*A,19VA,0,1600,50,AEA,DCA,N,NON-NPIAS  ,NON-NPIAS,VA,RUSSELL,ST. PAUL,FLYING W,PR,PR,JAMES F. WHITE JR.,23295 HARBOR LIGHT CIRCLE,"ABINGDON, VA 24211",36.889722,-82.297778, ,No,None,1760,N,0,4,0
25995.52*A,6VA4,0,1400,60,AEA,DCA,N,NON-NPIAS  ,NON-NPIAS,VA,ROANOKE,SALEM,SUMMIT,PR,PR,SUMMIT HELICOPTERS INC.,525 MC CLELLAND ST PO BOX 909,"SALEM, VA 24153",37.284857,-80.069763, ,No,None,1030,N,0,8,2
25996.*A,W75,0,2167,45,AEA,DCA,N,NON-NPIAS  ,NON-NPIAS,VA,MIDDLESEX,SALUDA,HUMMEL FLD,PU,PU,COUNTY BOARD OF SUPERVISORS,"877 GENERAL PULLER HWY, P.O. BOX 428","SALUDA, VA 23149",37.602271,-76.446729, ,No,None,30,N,0,32,12835
25996.01*A,2VA6,0,3200,60,AEA,DCA,N,NON-NPIAS  ,NON-NPIAS,VA,MIDDLESEX,SALUDA,ARROWHEAD POINT,PR,PR,NIMCOCK LLC,3656 CUSTIS MILL POND ROAD,"WEST POINT, VA 23181",37.623752,-76.601065, ,No,None,85,N,0,1,0
25998.01*A,65VA,0,1700,40,AEA,DCA,N,NON-NPIAS  ,NON-NPIAS,VA,ALBEMARLE,SCOTTSVILLE,GRAYSON,PR,PR,TIM T. SCHMIDT,6507 SCOTTSVILLE RD,"SCOTTSVILLE, VA 24590",37.844667,-78.547000, ,No,None,445,N,0,0,1
26006.*A,31VA,0,5921,60,AEA,DCA,N,NON-NPIAS  ,NON-NPIAS,VA,ISLE OF WIGHT,SMITHFIELD,ABERDEEN FLD,PR,PR,"ROSF, LLC",12442 EAST BAY SHORE ROAD,"VIRGINIA BEACH, VA 23451",37.023759,-76.588565, ,No,None,33,N,0,0,0
26011.*A,W78,0,4003,75,AEA,DCA,N,General Aviation ,3 Local,VA,HALIFAX,SOUTH BOSTON,WILLIAM M TUCK,PU,PU,COUNTY OF HALIFAX,PO BOX 699,"HALIFAX, VA 24558",36.709372,-78.848337, ,No,None,419,N,0,19,7351
26011.02*A,3VG9,0,1800,100,AEA,DCA,N,NON-NPIAS  ,NON-NPIAS,VA,HALIFAX,SOUTH BOSTON,POTTS LANDING,PR,PR,ROBERT POTTS,4131 BIRCH ELMO ROAD,"SOUTH BOSTON, VA 24592",36.701944,-79.133889, ,No,None,550,N,0,1,0
26011.1*A,1VA7,0,1800,110,AEA,DCA,N,NON-NPIAS  ,NON-NPIAS,VA,HALIFAX,SOUTH BOSTON,AARON PENSTON FLD,PR,PR,SANDRA SMITH RISTER,11051 BILL TUCK HIGHWAY,"VIRGILINA, VA 24598",36.665973,-78.722505, ,No,None,413,N,0,1,0
26014.01*A,AVC,0,5002,75,AEA,DCA,N,General Aviation ,3 Local,VA,MECKLENBURG,SOUTH HILL,MECKLENBURG-BRUNSWICK RGNL,PU,PU,MECKLENBURG-BRUNSWICK RGNL APT COMM,1495 REGIONAL AIRPORT RD,"BRODNAX, VA 23920-3520",36.688278,-78.054472,LOC/DME ,No,ODALS ,441,N,0,29,10783
26021.5*A,1VA9,0,2000,40,AEA,DCA,N,NON-NPIAS  ,NON-NPIAS,VA,STAFFORD,STAFFORD,FLYING T FARM,PR,PR,TONY CHENG,1727 STONEBRIDGE ROAD,"ALEXANDRIA, VA 22304",38.432903,-77.470539, ,No,None,255,N,0,0,0
26022.1*A,SHD,17584,6002,150,AEA,DCA,Y,Primary Non-Hub,P-4 N,VA,AUGUSTA,STAUNTON/WAYNESBORO/HARRISONBURG,SHENANDOAH VALLEY RGNL,PU,PU,SHENANDOAH VAL REG ARPT COMM,77 AVIATION CIR.,"WEYERS CAVE, VA 24486",38.263833,-78.896444,ILS ,Yes,MALSR ,1201,N,0,0,0
26023.4*A,VA00,0,2000,75,AEA,DCA,N,NON-NPIAS  ,NON-NPIAS,VA,AUGUSTA,STEELES TAVERN,BROOK HILL FARM,PR,PR,DOUGLAS P SNYDER,5325 COLD SPRING RD,"RAPHINE, VA 24472",37.928189,-79.178086, ,No,None,1600,N,0,1,0
26025.*A,VA17,0,2000,75,AEA,DCA,N,NON-NPIAS  ,NON-NPIAS,VA,SHENANDOAH,STRASBURG,MULBERRY RUN,PR,PR,GEORGE PHILLIPS,539 HOCKMAN RD,"STRASBURG, VA 22657",39.035941,-78.392228, ,No,None,820,N,0,1,0
26027.*A,1VA1,0,5020,70,AEA,DCA,N,NON-NPIAS  ,NON-NPIAS,VA,PATRICK,STUART,MICRO,PR,PR,MELVIN C. STANLEY,225 JEB STUART HWY,"MEADOWS OF DAN, VA 24120",36.736132,-80.445407, ,No,None,2964,N,0,0,0
26028.*A,SFQ,0,5007,100,AEA,DCA,N,General Aviation ,3 Local,VA,SUFFOLK,SUFFOLK,SUFFOLK EXEC,PU,PU,CITY OF SUFFOLK,PO BOX 1858,"SUFFOLK, VA 23434",36.682888,-76.599623,LOC/DME ,No,None,70,N,1,56,40656
26029.7*A,2VA2,0,2900,60,AEA,DCA,N,NON-NPIAS  ,NON-NPIAS,VA,SURRY,SURRY,MELVILLE AIRSTRIP,PR,PR,RANDOLPH SAVEDGE,416 MELVILLE DRIVE,"SURRY, VA 23883",37.145982,-76.789959, ,No,None,90,N,0,2,0
26029.71*A,VA33,0,2500,100,AEA,DCA,N,NON-NPIAS  ,NON-NPIAS,VA,SURRY,SURRY,BEAVER DAM AIRPARK,PR,PR,"BEAVER DAM AIRPARK ESTATES, LLC.",8229 BEECH LAND RD,"ELBERON, VA 23846",37.044317,-76.768250, ,No,None,100,N,0,8,0
26030.1*A,VG05,0,2300,135,AEA,DCA,N,NON-NPIAS  ,NON-NPIAS,VA,GOOCHLAND,TABSCOTT,PAYNE,PR,PR,NORMAN CALL,P.O. BOX 10,"CROZIER, VA 23039",37.879587,-78.057499, ,No,None,463,N,0,1,0
26030.5*A,TGI,0,2426,75,AEA,DCA,N,General Aviation ,4 Basic,VA,ACCOMACK,TANGIER,TANGIER ISLAND,PU,PU,TOWN OF TANGIER,TANGIER ISLAND,"TANGIER, VA 23440",37.825865,-75.997663, ,No,None,5,N,0,0,1000
26031.1*A,XSA,0,4300,75,AEA,DCA,N,General Aviation ,3 Local,VA,ESSEX,TAPPAHANNOCK,TAPPAHANNOCK-ESSEX COUNTY,PU,PU,ESSEX COUNTY ARPT AUTH,1450 AVIATION ROAD,"TAPPAHANNOCK, VA 22560",37.859611,-76.894111, ,No,None,135,N,0,22,11829
26033.21*A,VA07,0,2500,50,AEA,DCA,N,NON-NPIAS  ,NON-NPIAS,VA,TAZEWELL,TAZEWELL,BURKES GARDEN,PR,PR,"MOCOMP, INC",PO BOX 920,"VERONA, VA 24482",37.095672,-81.369271, ,No,None,3060,N,0,0,0
26036.*A,2VG2,0,5100,100,AEA,DCA,N,NON-NPIAS  ,NON-NPIAS,VA,FAUQUIER,UPPERVILLE,UPPERVILLE,PR,PR,OAK SPRING GARDEN FDN,1776 LOUGHBOROUGH LANE,"UPPERVILLE, VA 20184",38.971636,-77.869904, ,No,None,557,N,0,0,0
26037.1*A,2VA5,0,2400,200,AEA,DCA,N,NON-NPIAS  ,NON-NPIAS,VA,MIDDLESEX,URBANNA,ROSEGILL FARM AIRSTRIP,PR,PR,ALFRED P. SCOTT,PO BOX 6861,"RICHMOND, VA 23230",37.630696,-76.564953, ,No,None,32,N,0,0,0
26040.5*A,82VA,0,2200,100,AEA,DCA,N,NON-NPIAS  ,NON-NPIAS,VA,AUGUSTA,VERONA,ROOT FLD,PR,PR,FRANKLIN L ROOT,130 ROOT LANE,"STAUNTON, VA 24401",38.173188,-78.969193, ,No,None,1290,N,0,2,0
26043.*A,42VA,0,4845,190,AEA,DCA,N,NON-NPIAS  ,NON-NPIAS,VA,VIRGINIA BEACH,VIRGINIA BEACH,VIRGINIA BEACH,PR,PR,"VIRGINIA BEACH ARPT, LLC",4455 SOUTH BLVD,"VIRGINIA BEACH, VA 23452",36.678904,-76.032776, ,No,None,15,N,0,54,0
26043.11*A,NTU,0,12008,200,AEA,DCA,N,NON-NPIAS  ,NON-NPIAS,VA,VIRGINIA BEACH,VIRGINIA BEACH,OCEANA NAS /APOLLO SOUCEK FLD/,MILITARY,PR,U.S. NAVY,OCEANOGRAPHIC OFC-CODE 3142,"WASHINGTON, DC 20373",36.822742,-76.031897, ,No,ALSF1 ALSF1,22,Y,0,0,0
26047.5*A,AKQ,0,4337,75,AEA,DCA,N,NON-NPIAS  ,NON-NPIAS,VA,SUSSEX,WAKEFIELD,WAKEFIELD MUNI,PU,PU,TOWN OF WAKEFIELD,P O BOX 550,"WAKEFIELD, VA 23888",36.987222,-77.001139, ,No,None,111,N,0,24,16318
26047.8*A,WAL,0,8748,150,AEA,DCA,N,NON-NPIAS  ,NON-NPIAS,VA,ACCOMACK,WALLOPS ISLAND,WALLOPS FLIGHT FACILITY,PU,PR,NASA,WALLOPS FLIGHT FACILITY,"WALLOPS ISLAND, VA 23337",37.940194,-75.466389, ,No,None,40,Y,2,11,0
26048.*A,9VA0,0,3700,150,AEA,DCA,N,NON-NPIAS  ,NON-NPIAS,VA,BATH,WARM SPRINGS,BATH ALUM,PR,PR,CAMBATA INDUSTRIES INC.,RT 1,"MILLBORO, VA 24460",38.052626,-79.728938, ,No,None,1779,N,0,3,0
26048.1*A,97VA,0,1600,50,AEA,DCA,N,NON-NPIAS  ,NON-NPIAS,VA,BATH,WARM SPRINGS,SINGLETON,PR,PR,JOHN & CATHY SINGLETON,PO BOX 116,"WARM SPRINGS, VA 24484",38.210680,-79.713383, ,No,None,2060,N,0,1,0
26049.*A,7VG0,0,2215,70,AEA,DCA,N,NON-NPIAS  ,NON-NPIAS,VA,FAUQUIER,WARRENTON,WARRENTON AIR PARK,PR,PR,THOMAS RICHARDS,9272 GREEN MEADOWS RD,"WARRENTON, VA 20187",38.655676,-77.787215, ,No,None,442,N,0,32,8200
26049.01*A,2VA9,0,3250,50,AEA,DCA,N,NON-NPIAS  ,NON-NPIAS,VA,FAUQUIER,WARRENTON,AIRLIE,PR,PR,THE KIMMAREN CORP.,6809 AIRLIE ROAD,"WARRENTON, VA 20187",38.757894,-77.787215, ,No,None,522,N,0,0,0
26049.02*A,3VA0,0,1200,50,AEA,DCA,N,NON-NPIAS  ,NON-NPIAS,VA,FAUQUIER,WARRENTON,AYRES-AICP,PR,PR,HENRY AYRES,9652 CONDE RD,"MARSHALL, VA 22115",38.775949,-77.910550, ,No,None,530,N,0,1,0
26049.03*A,3VA1,0,2100,125,AEA,DCA,N,NON-NPIAS  ,NON-NPIAS,VA,FAUQUIER,WARRENTON,THE MEADOWS,PR,PR,K. W. HYDE,7099 GLENN CURTISS LANE,"WARRENTON, VA 22187",38.774283,-77.799716, ,No,None,584,N,0,1,0
26049.04*A,3VA2,0,2100,100,AEA,DCA,N,NON-NPIAS  ,NON-NPIAS,VA,FAUQUIER,WARRENTON,AVIACRES,PR,PR,JOHN D. KING,6555 STONEY RD,"MIDLAND, VA 22728",38.624288,-77.786104, ,No,None,435,N,0,5,0
26049.1*A,3VA3,0,2500,150,AEA,DCA,N,NON-NPIAS  ,NON-NPIAS,VA,FAUQUIER,WARRENTON,FLYING CIRCUS AERODROME,PR,PR,FLYING CIRCUS AIRSHOWS INC,P.O. BOX 99,"BEALTON, VA 22712",38.550401,-77.715824, ,No,None,315,N,0,10,0
26049.11*A,15VA,0,1950,125,AEA,DCA,N,NON-NPIAS  ,NON-NPIAS,VA,FAUQUIER,WARRENTON,FOX ACRES,PR,PR,CONRAD MILLER,9317 PINEY MT RD,"WARRENTON, VA 20186",38.722340,-77.899717, ,No,None,450,N,0,1,0
26049.18*A,0VA0,0,2300,125,AEA,DCA,N,NON-NPIAS  ,NON-NPIAS,VA,FAUQUIER,WARRENTON,RAMBO AIRFIELD,PR,PR,GENE RAMBO,305 RILEY STREET,"FALLS CHURCH, VA 22046",38.524856,-77.687356, ,No,None,390,N,0,4,0
26049.2*A,HWY,0,5000,100,AEA,DCA,N,Reliever ,2 Regional,VA,FAUQUIER,WARRENTON,WARRENTON-FAUQUIER,PU,PU,FAUQUIER COUNTY,"10 HOTEL ST, SUITE 204","WARRENTON, VA 20186",38.586278,-77.710639,LOC/DME ,No,None,336,N,2,124,49877
26049.4*A,3VA4,0,2000,50,AEA,DCA,N,NON-NPIAS  ,NON-NPIAS,VA,RICHMOND,WARSAW,BILL DAVENPORT MEML,PR,PR,W. M. DAVENPORT,1637 SHANDY HALL ROAD,"WARSAW, VA 22572",37.857637,-76.735792, ,No,None,10,N,0,0,0
26049.41*A,VG29,0,3100,100,AEA,DCA,N,NON-NPIAS  ,NON-NPIAS,VA,RICHMOND,WARSAW,BRANHAM MILL AIRPARK,PR,PR,PATRICK WEAKLAND,1539 THREEWAY RD,"WARSAW, VA 22572",37.970111,-76.708667, ,No,None,100,N,0,2,0
26049.42*A,2VG8,0,2300,70,AEA,DCA,N,NON-NPIAS  ,NON-NPIAS,VA,RICHMOND,WARSAW,FOLLY NECK,PR,PR,MARVIN & CATHERINE NIELSEN,27938 OAKLANDS CIRCLE,"EASTON, MD 21001",37.872222,-76.731111, ,No,None,12,N,0,0,0
26054.*A,W13,0,2004,50,AEA,DCA,N,NON-NPIAS  ,NON-NPIAS,VA,AUGUSTA,WAYNESBORO,EAGLE'S NEST,PR,PU,MICHAEL L FOGLE,P. O. BOX 691236,"CHARLOTTE, NC 28227-7021",38.076938,-78.944438, ,No,None,1436,N,0,63,13877
26062.*A,9VG,0,3000,100,AEA,DCA,N,NON-NPIAS  ,NON-NPIAS,VA,NORTHAMPTON,WEIRWOOD,CAMPBELL FLD,PR,PU,CAMPBELL FIELD INC.,9114 BAYFORD RD,"FRANKTOWN, VA 23544-0084",37.458469,-75.878819, ,No,None,40,N,0,3,1150
26064.*A,FYJ,0,5000,75,AEA,DCA,N,General Aviation ,3 Local,VA,KING AND QUEEN,WEST POINT,MIDDLE PENINSULA RGNL,PU,PU,MIDDLE PENISULA REG'L AIRPORT AUTHO,1000 AIRPORT ROAD,"MATTAPONI, VA 23110",37.521361,-76.762750,LOC/DME ,No,None,20,N,0,30,10099
26064.2*A,VG64,0,2000,75,AEA,DCA,N,NON-NPIAS  ,NON-NPIAS,VA,KING WILLIAM,WEST POINT,LEE FLD,PR,PR,"ROMANCOKE, LLC",4170 TANAGER CT.,"WEST POINT, VA 23181",37.561500,-76.852528, ,No,None,20,N,0,1,0
26064.51*A,VG37,0,2550,60,AEA,DCA,N,NON-NPIAS  ,NON-NPIAS,VA,NANSEMOND,WHALEYVILLE,UMPHLETT AIRSTRIP,PR,PR,FLOYD UMPHLETT,GREENWAY DR,"SUFFOLK, VA 23438",36.589318,-76.638008, ,No,None,75,N,0,4,700
26065.*A,3VA7,0,2000,75,AEA,DCA,N,NON-NPIAS  ,NON-NPIAS,VA,CLARKE,WHITE POST,WHITE POST,PR,PR,KENNETH CONN,16054 WINDSOCK WAY,"CULPEPER, VA 22701",39.062607,-78.091388, ,No,None,610,N,0,2,0
26067.1*A,W94,0,5018,151,AEA,DCA,N,NON-NPIAS  ,NON-NPIAS,VA,YORK,WILLIAMSBURG,CAMP PEARY LNDG STRIP,MILITARY,PR,US ARMY AERONAUTICAL SVCS AGENCY,,"FT BELVOIR, VA 22060",37.312794,-76.638217, ,No,None,40,N,0,0,0
26067.2*A,JGG,0,3204,60,AEA,DCA,N,NON-NPIAS  ,NON-NPIAS,VA,JAMES CITY,WILLIAMSBURG,WILLIAMSBURG-JAMESTOWN,PR,PU,WILLIAMSBURG-JAMESTOWN ARPT.,100 MARCLAY RD,"WILLIAMSBURG, VA 23185",37.239175,-76.716096, ,No,None,49,N,0,59,29280
26070.*A,OKV,0,5498,100,AEA,DCA,N,General Aviation ,2 Regional,VA,FREDERICK,WINCHESTER,WINCHESTER RGNL,PU,PU,WINCHESTER REG ARPT AUTH,491 AIRPORT RD,"WINCHESTER, VA 22602",39.143528,-78.144444, ILS/DME,Yes, MALSR,726,N,3,84,43100
26070.3*A,9VG9,0,1500,70,AEA,DCA,N,NON-NPIAS  ,NON-NPIAS,VA,FREDERICK,WINCHESTER,JUCAPA FARMS,PR,PR,LARRY T. OMPS,171 OMPS DRIVE,"WINCHESTER, VA 22601",39.372117,-78.304450, ,No,None,1160,N,0,2,0
26074.*A,3VA8,0,2600,75,AEA,DCA,N,NON-NPIAS  ,NON-NPIAS,VA,ISLE OF WIGHT,WINDSOR,GARNER,PR,PR,TIDEWATER SOARING FOUNDATION,1400 MAQRUDER RD,"SMITHFIELD, VA 23430",36.856260,-76.682178, ,No,None,80,N,0,2,0
26075.3*A,LNP,0,5280,100,AEA,DCA,N,General Aviation ,4 Basic,VA,WISE,WISE,LONESOME PINE,PU,PU,THE CUMBERLAND ARPT COMSN,6225 AIRPORT ROAD,"WISE, VA 24293",36.987518,-82.529998, ILS/DME,Yes, ODALS,2684,N,1,12,9425
26075.7*A,VA41,0,1640,55,AEA,DCA,N,NON-NPIAS  ,NON-NPIAS,VA,ACCOMACK,WITHAMS,HIGH HOPES,PR,PR,MIKE SMOLINSKI,7470 JENKINS BRIDGE ROAD,"WITHAMS, VA 23488",37.934569,-75.609927, ,No,None,9,N,0,1,75
26077.41*A,4VA4,0,2000,75,AEA,DCA,N,NON-NPIAS  ,NON-NPIAS,VA,SHENANDOAH,WOODSTOCK,HEPNER,PR,PR,JAMES A. HEPNER,RT 1 BOX 389,"MAURERTOWN, VA 22644",38.934832,-78.540011, ,No,None,1150,N,0,1,0
26077.43*A,VG55,0,3100,100,AEA,DCA,N,NON-NPIAS  ,NON-NPIAS,VA,CHESAPEAKE,WOODSTOCK,BURNER,PR,PR,"BURNER GLIDERPORT, LLC",2059 KEDGE DR,"VIENNA, VA 22181",38.882050,-78.557789, ,No,None,965,N,0,1,0
26077.6*A,6VA9,0,2800,100,AEA,DCA,N,NON-NPIAS  ,NON-NPIAS,VA,PATRICK,WOOLWINE,BUSH,PR,PR,LARRY E. DONLEY,4461 WOODS GAP RD,"WOOLWINE, VA 24185",36.842634,-80.238382, ,No,None,1500,N,0,0,0
